Metar
station: LEXJ
type: routine report, cycle 8 (automatic report)
time: Sun May  2 08:30:00 2010
temperature: 13.0 C
dew point: 10.0 C
wind: WSW at 8 knots
visibility: 8000 meters
pressure: 1017.0 mb
weather: light rain
sky: broken clouds at 2000 feet
     overcast at 3500 feet
METAR: LEXJ 020830Z 24008KT 8000 -RA BKN020 OVC035 13/10 Q1017

Google
{'current_conditions': ''}