Metar
station: LEXJ
type: routine report, cycle 3 (automatic report)
time: Sun May  2 03:30:00 2010
temperature: 13.0 C
dew point: 12.0 C
wind: W at 7 knots
visibility: 7000 meters
pressure: 1017.0 mb
weather: light rain
sky: scattered clouds at 2100 feet
     broken clouds at 3500 feet
METAR: LEXJ 020330Z 26007KT 7000 -RA SCT021 BKN035 13/12 Q1017

Google
{'current_conditions': ''}