Metar
station: LEXJ
type: routine report, cycle 8 (automatic report)
time: Tue May  4 08:30:00 2010
temperature: 11.0 C
dew point: 3.0 C
wind: NNW to ENE at 17 knots
visibility: greater than 10000 meters
pressure: 1021.0 mb
sky: scattered clouds at 2700 feet
     broken clouds at 6400 feet
METAR: LEXJ 040830Z 01017KT 330V060 9999 SCT027 BKN064 11/03 Q1021

Google
{'current_conditions': ''}