Metar
station: LEXJ
type: routine report, cycle 11 (automatic report)
time: Mon May  3 11:30:00 2010
temperature: 12.0 C
dew point: 7.0 C
wind: NNW to E at 16 knots
visibility: greater than 10000 meters
pressure: 1018.0 mb
sky: a few clouds at 2100 feet
     scattered clouds at 3000 feet
     broken clouds at 6500 feet
METAR: LEXJ 031130Z 36016KT 330V080 9999 FEW021 SCT030 BKN065 12/07 Q1018

Google
{'current_conditions': ''}