Metar
station: LEXJ
type: routine report, cycle 13 (automatic report)
time: Tue May  4 13:30:00 2010
temperature: 11.0 C
dew point: 3.0 C
wind: WNW to NNE at 14 knots
visibility: greater than 10000 meters
pressure: 1021.0 mb
sky: a few clouds at 2600 feet
     broken clouds at 5800 feet
METAR: LEXJ 041330Z 34014KT 290V020 9999 FEW026 BKN058 11/03 Q1021

Google
{'current_conditions': ''}