Metar
station: LEXJ
type: routine report, cycle 10 (automatic report)
time: Tue May  4 10:30:00 2010
temperature: 11.0 C
dew point: 3.0 C
wind: NW to NE at 15 knots
visibility: greater than 10000 meters
pressure: 1021.0 mb
sky: scattered clouds at 2400 feet
     broken clouds at 5600 feet
METAR: LEXJ 041030Z 36015KT 320V040 9999 SCT024 BKN056 11/03 Q1021

Google
{'current_conditions': ''}