Metar
station: LEXJ
type: routine report, cycle 6 (automatic report)
time: Sun May  2 06:30:00 2010
temperature: 12.0 C
dew point: 11.0 C
wind: S to WSW at 6 knots
visibility: 9000 meters
pressure: 1017.0 mb
sky: scattered clouds at 2000 feet
     overcast at 5000 feet
METAR: LEXJ 020630Z 21006KT 180V240 9000 SCT020 OVC050 12/11 Q1017

Google
{'current_conditions': ''}