Metar
station: LERS
type: routine report, cycle 13 (automatic report)
time: Tue May  4 13:30:00 2010
temperature: 12.0 C
dew point: 2.0 C
wind: WSW to WNW at 13 knots
visibility: greater than 10000 meters
pressure: 1002.0 mb
sky: a few clouds at 1200 feet
     scattered clouds at 4500 feet
METAR: LERS 041330Z 27013KT 240V300 9999 FEW012 SCT045 12/02 Q1002 RERA

Google
{'current_conditions': ''}