Metar
station: LERS
type: routine report, cycle 20 (automatic report)
time: Mon May  3 20:00:00 2010
temperature: 9.0 C
dew point: 8.0 C
wind: SSW to W at 3 knots
visibility: 8000 meters
pressure: 1006.0 mb
weather: rain
sky: a few clouds at 1600 feet
     broken clouds at 4500 feet
METAR: LERS 032000Z 24003KT 200V270 8000 RA FEW016 BKN045 09/08 Q1006

Google
{'current_conditions': ''}