Metar
station: LERS
type: routine report, cycle 14 (automatic report)
time: Sun May  2 14:30:00 2010
temperature: 18.0 C
dew point: 10.0 C
wind: SSE to WSW at 11 knots
visibility: greater than 10000 meters
pressure: 1011.0 mb
sky: scattered clouds at 3000 feet
METAR: LERS 021430Z 20011KT 150V250 9999 SCT030 18/10 Q1011

Google
{'current_conditions': ''}