Metar
station: LERS
type: routine report, cycle 16 (automatic report)
time: Mon May  3 16:00:00 2010
temperature: 9.0 C
dew point: 7.0 C
wind: NW to NNE at 5 knots
visibility: 7000 meters
pressure: 1007.0 mb
weather: rain
sky: a few clouds at 1600 feet
     broken clouds at 4000 feet
METAR: LERS 031600Z 34005KT 320V020 7000 RA FEW016 BKN040 09/07 Q1007

Google
{'current_conditions': ''}