Metar
station: LERS
type: routine report, cycle 11 (automatic report)
time: Sun May  2 11:30:00 2010
temperature: 22.0 C
dew point: 5.0 C
wind: SW to NNW at 10 knots
visibility: greater than 10000 meters
pressure: 1012.0 mb
sky: a few clouds at 4000 feet
METAR: LERS 021130Z 28010KT 230V330 9999 FEW040 22/05 Q1012

Google
{'current_conditions': ''}