Metar
station: LERS
type: routine report, cycle 13 (automatic report)
time: Mon May  3 13:30:00 2010
temperature: 9.0 C
dew point: 7.0 C
wind: NNE at 11 knots
visibility: 4000 meters
pressure: 1008.0 mb
weather: rain
sky: a few clouds at 1500 feet
     broken clouds at 4000 feet
METAR: LERS 031330Z 02011KT 4000 RA FEW015 BKN040 09/07 Q1008

Google
{'current_conditions': ''}