Metar
station: LERS
type: routine report, cycle 5 (automatic report)
time: Sun May  2 05:30:00 2010
temperature: 12.0 C
dew point: 8.0 C
wind: WNW at 3 knots
visibility: greater than 10000 meters
pressure: 1012.0 mb
sky: scattered clouds at 2000 feet
METAR: LERS 020530Z 30003KT 9999 SCT020 12/08 Q1012

Google
{'current_conditions': ''}