Metar
station: GCFV
type: routine report, cycle 10 (automatic report)
time: Tue May  4 10:00:00 2010
temperature: 20.0 C
dew point: 12.0 C
wind: NE at 15 knots
visibility: 9000 meters
pressure: 1016.0 mb
sky: scattered clouds at 3000 feet
METAR: GCFV 041000Z 04015KT 9000 SCT030 20/12 Q1016

Google
{'current_conditions': ''}