Metar
station: GCFV
type: routine report, cycle 5 (automatic report)
time: Sun May  2 05:30:00 2010
temperature: 18.0 C
dew point: 15.0 C
wind: N at 12 knots
visibility: greater than 10000 meters
pressure: 1014.0 mb
sky: a few clouds at 2000 feet
METAR: GCFV 020530Z 01012KT 9999 FEW020 18/15 Q1014

Google
{'current_conditions': ''}