Metar
station: GCFV
type: routine report, cycle 8 (automatic report)
time: Tue May  4 08:30:00 2010
temperature: 19.0 C
dew point: 12.0 C
wind: NNE at 16 knots
visibility: 9000 meters
pressure: 1016.0 mb
sky: scattered clouds at 2800 feet
METAR: GCFV 040830Z 03016KT 9000 SCT028 19/12 Q1016

Google
{'current_conditions': ''}