Metar
station: LEAB
type: routine report, cycle 6 (automatic report)
time: Sun May  2 06:00:00 2010
temperature: 11.0 C
dew point: 10.0 C
wind: NNW to NNE at 3 knots
visibility: 300 meters
visual range: on runway 09, 2000 meters; on runway 27, from 325 to 500 meters
pressure: 1014.0 mb
weather: fog
sky: broken clouds at 200 feet
METAR: LEAB 020600Z 01003KT 330V030 0300 R09/2000U R27/0325V0500N FG BKN002 11/10 Q1014 NOSIG

Google
{'current_conditions': ''}