Metar
station: LEAB
type: routine report, cycle 20 (automatic report)
time: Mon May  3 20:00:00 2010
temperature: 9.0 C
dew point: 3.0 C
wind: WNW at 18 knots
visibility: greater than 10000 meters
pressure: 1011.0 mb
sky: scattered clouds at 4500 feet
METAR: LEAB 032000Z 30018KT 9999 SCT045 09/03 Q1011 NOSIG

Google
{'current_conditions': ''}