Metar
station: LEAB
type: routine report, cycle 5 (automatic report)
time: Sun May  2 05:08:00 2010
temperature: 10.0 C
dew point: 9.0 C
wind: W at 4 knots
visibility: 500 meters
visual range: on runway 09, from 400 to 600 meters; on runway 27, 2000 meters
pressure: 1014.0 mb
weather: fog
sky: scattered clouds at 200 feet
METAR: LEAB 020508Z 27004KT 0500 R09/0400V0600D R27/2000D FG SCT002 10/09 Q1014 TEMPO 0200 BKN002

Google
{'current_conditions': ''}