Metar
station: LELN
type: routine report, cycle 14 (automatic report)
time: Tue May  4 14:00:00 2010
temperature: 7.0 C
dew point: -2.0 C
wind: WNW to NNE at 14 knots
visibility: greater than 10000 meters
pressure: 1018.0 mb
sky: broken clouds at 3000 feet
METAR: LELN 041400Z 35014KT 290V030 9999 BKN030 07/M02 Q1018

Google
{'current_conditions': ''}