Metar
station: LELN
type: routine report, cycle 14 (automatic report)
time: Mon May  3 14:00:00 2010
temperature: 9.0 C
dew point: 0.0 C
wind: NNW to NE at 13 knots
visibility: greater than 10000 meters
pressure: 1016.0 mb
sky: scattered clouds at 2700 feet
METAR: LELN 031400Z 01013KT 330V040 9999 SCT027 09/00 Q1016

Google
{'current_conditions': ''}