Metar
station: LELN
type: routine report, cycle 21 (automatic report)
time: Mon May  3 21:00:00 2010
temperature: 3.0 C
dew point: -2.0 C
wind: calm
visibility: greater than 10000 meters
pressure: 1018.0 mb
sky: a few clouds at 3000 feet
METAR: LELN 032100Z 00000KT 9999 FEW030 03/M02 Q1018

Google
{'current_conditions': ''}