Metar
station: LEBZ
type: routine report, cycle 8 (automatic report)
time: Sun May  2 08:00:00 2010
temperature: 15.0 C
dew point: 11.0 C
wind: SSW to WNW at 3 knots
visibility: 10000 meters
pressure: 1015.0 mb
METAR: LEBZ 020800Z 25003KT 210V290 CAVOK 15/11 Q1015

Google
{'current_conditions': ''}