Metar
station: LEBZ
type: routine report, cycle 11 (automatic report)
time: Sun May  2 11:00:00 2010
temperature: 20.0 C
dew point: 12.0 C
wind: SW to NNW at 7 knots
visibility: 10000 meters
pressure: 1014.0 mb
METAR: LEBZ 021100Z 28007KT 230V330 CAVOK 20/12 Q1014

Google
{'current_conditions': ''}