Metar
station: LEBZ
type: routine report, cycle 18 (automatic report)
time: Mon May  3 18:00:00 2010
temperature: 20.0 C
dew point: 1.0 C
wind: WNW to N at 14 knots
visibility: greater than 10000 meters
pressure: 1013.0 mb
sky: a few clouds at 6500 feet
METAR: LEBZ 031800Z 33014KT 290V350 9999 FEW065 20/01 Q1013

Google
{'current_conditions': ''}