Metar
station: LEVD
type: routine report, cycle 11 (automatic report)
time: Sun May  2 11:30:00 2010
temperature: 14.0 C
dew point: 7.0 C
wind: NW to E at 3 knots
visibility: greater than 10000 meters
pressure: 1015.0 mb
sky: scattered clouds at 3000 feet
METAR: LEVD 021130Z 05003KT 310V090 9999 SCT030 14/07 Q1015

Google
{'current_conditions': ''}