Metar
station: LEVD
type: routine report, cycle 11 (automatic report)
time: Mon May  3 11:30:00 2010
temperature: 6.0 C
dew point: 2.0 C
wind: NNW to NE at 13 knots
visibility: 8000 meters
pressure: 1015.0 mb
weather: heavy rain
sky: broken clouds at 3500 feet
METAR: LEVD 031130Z 01013KT 340V040 8000 +RA BKN035 06/02 Q1015

Google
{'current_conditions': ''}