Metar
station: LEVD
type: routine report, cycle 13 (automatic report)
time: Mon May  3 13:30:00 2010
temperature: 8.0 C
dew point: 5.0 C
wind: ENE at 15 knots
visibility: greater than 10000 meters
pressure: 1015.0 mb
sky: a few cumulonimbus at 3500 feet
     broken clouds at 4000 feet
METAR: LEVD 031330Z 06015KT 9999 FEW035CB BKN040 08/05 Q1015

Google
{'current_conditions': ''}