Metar
station: LEVD
type: routine report, cycle 10 (automatic report)
time: Sun May  2 10:30:00 2010
temperature: 14.0 C
dew point: 7.0 C
wind: NNE to ESE at 5 knots
visibility: greater than 10000 meters
pressure: 1015.0 mb
sky: scattered clouds at 2500 feet
METAR: LEVD 021030Z 07005KT 020V110 9999 SCT025 14/07 Q1015

Google
{'current_conditions': ''}