Metar
station: LEVD
type: routine report, cycle 6 (automatic report)
time: Sun May  2 06:30:00 2010
temperature: 9.0 C
dew point: 7.0 C
wind: NNE at 6 knots
visibility: 10000 meters
pressure: 1015.0 mb
METAR: LEVD 020630Z 03006KT CAVOK 09/07 Q1015

Google
{'current_conditions': ''}