Metar
station: LEVD
type: routine report, cycle 14 (automatic report)
time: Tue May  4 14:30:00 2010
temperature: 9.0 C
dew point: -2.0 C
wind: N to NE at 15 knots
visibility: greater than 10000 meters
pressure: 1016.0 mb
sky: scattered clouds at 4000 feet
METAR: LEVD 041430Z 02015KT 350V050 9999 SCT040 09/M02 Q1016

Google
{'current_conditions': ''}