Metar
station: LEVT
type: routine report, cycle 14 (automatic report)
time: Sun May  2 14:30:00 2010
temperature: 10.0 C
dew point: 6.0 C
wind: NW to NNE at 8 knots
visibility: greater than 10000 meters
pressure: 1016.0 mb
sky: a few clouds at 1700 feet
     scattered clouds at 2500 feet
     broken clouds at 4500 feet
METAR: LEVT 021430Z 35008KT 310V020 9999 FEW017 SCT025 BKN045 10/06 Q1016

Google
{'current_conditions': ''}