Metar
station: LEVT
type: routine report, cycle 13 (automatic report)
time: Mon May  3 13:30:00 2010
temperature: 7.0 C
dew point: 5.0 C
wind: NNW to NE at 12 knots
visibility: greater than 10000 meters
pressure: 1015.0 mb
weather: light rain
sky: scattered clouds at 1500 feet
     broken clouds at 2600 feet
METAR: LEVT 031330Z 01012KT 340V040 9999 -RA SCT015 BKN026 07/05 Q1015

Google
{'current_conditions': ''}