Metar
station: LEVT
type: routine report (automatic report)
time: Tue May  4 00:30:00 2010
temperature: 5.0 C
dew point: 4.0 C
wind: N to NE at 11 knots, gusting to 21 knots
visibility: greater than 10000 meters
pressure: 1016.0 mb
weather: light rain
sky: broken clouds at 2000 feet
METAR: LEVT 040030Z 01011G21KT 350V050 9999 -RA BKN020 05/04 Q1016

Google
{'current_conditions': ''}