Metar
station: LEVT
type: routine report, cycle 23 (automatic report)
time: Mon May  3 23:30:00 2010
temperature: 5.0 C
dew point: 4.0 C
wind: NW to NE at 6 knots
visibility: greater than 10000 meters
pressure: 1016.0 mb
weather: light rain
sky: broken clouds at 2200 feet
METAR: LEVT 032330Z 36006KT 310V050 9999 -RA BKN022 05/04 Q1016

Google
{'current_conditions': ''}