Metar
station: LEVT
type: routine report, cycle 19 (automatic report)
time: Mon May  3 19:00:00 2010
temperature: 5.0 C
dew point: 4.0 C
wind: WNW to NE at 8 knots
visibility: 8000 meters
pressure: 1016.0 mb
weather: rain
sky: scattered towering cumulus at 2000 feet
     broken clouds at 3000 feet
METAR: LEVT 031900Z 01008KT 290V050 8000 RA SCT020TCU BKN030 05/04 Q1016

Google
{'current_conditions': ''}