Metar
station: LEVT
type: routine report, cycle 14 (automatic report)
time: Tue May  4 14:30:00 2010
temperature: 5.0 C
dew point: 3.0 C
wind: WNW to N at 12 knots
visibility: 4000 meters
pressure: 1016.0 mb
weather: rain
sky: broken clouds at 1800 feet
     overcast at 5000 feet
METAR: LEVT 041430Z 33012KT 300V010 4000 RA BKN018 OVC050 05/03 Q1016

Google
{'current_conditions': ''}