Metar
station: LEVT
type: routine report, cycle 14 (automatic report)
time: Mon May  3 14:30:00 2010
temperature: 7.0 C
dew point: 6.0 C
wind: NNW to NE at 14 knots
visibility: 8000 meters
pressure: 1015.0 mb
weather: light rain
sky: scattered clouds at 1500 feet
     broken clouds at 2600 feet
METAR: LEVT 031430Z 01014KT 340V050 8000 -RA SCT015 BKN026 07/06 Q1015

Google
{'current_conditions': ''}