Metar
station: LEVT
type: routine report, cycle 19 (automatic report)
time: Mon May  3 19:30:00 2010
temperature: 6.0 C
dew point: 4.0 C
wind: WNW to NE at 6 knots
visibility: greater than 10000 meters
pressure: 1017.0 mb
weather: light rain
sky: scattered clouds at 2000 feet
     broken clouds at 2800 feet
METAR: LEVT 031930Z 35006KT 300V040 9999 -RA SCT020 BKN028 06/04 Q1017

Google
{'current_conditions': ''}