Metar
station: LEVT
type: routine report, cycle 8 (automatic report)
time: Tue May  4 08:30:00 2010
temperature: 5.0 C
dew point: 2.0 C
wind: NNW to NNE at 20 knots
visibility: greater than 10000 meters
pressure: 1015.0 mb
sky: broken clouds at 2000 feet
     overcast at 5500 feet
METAR: LEVT 040830Z 01020KT 330V030 9999 BKN020 OVC055 05/02 Q1015

Google
{'current_conditions': ''}