Metar
station: LEMD
type: routine report, cycle 7 (automatic report)
time: Sun May  2 07:30:00 2010
temperature: 11.0 C
dew point: 6.0 C
wind: NNW to NE at 4 knots
visibility: 10000 meters
pressure: 1015.0 mb
METAR: LEMD 020730Z 36004KT 330V040 CAVOK 11/06 Q1015 NOSIG

Google
{'current_conditions': ''}