Metar
station: LEMD
type: routine report, cycle 3 (automatic report)
time: Sun May  2 03:30:00 2010
temperature: 8.0 C
dew point: 6.0 C
wind: N at 6 knots
visibility: 10000 meters
pressure: 1014.0 mb
METAR: LEMD 020330Z 35006KT CAVOK 08/06 Q1014 NOSIG

Google
{'current_conditions': ''}