Metar
station: LEMD
type: routine report, cycle 14 (automatic report)
time: Mon May  3 14:30:00 2010
temperature: 15.0 C
dew point: 1.0 C
wind: NW to NNE at 21 knots
visibility: greater than 10000 meters
pressure: 1011.0 mb
sky: scattered clouds at 5500 feet
METAR: LEMD 031430Z 35021KT 320V030 9999 SCT055 15/01 Q1011 WS ALL RWY NOSIG

Google
{'current_conditions': ''}