Metar
station: LEMD
type: routine report (automatic report)
time: Sun May  2 00:30:00 2010
temperature: 12.0 C
dew point: 7.0 C
wind: NW to E at 5 knots
visibility: 10000 meters
pressure: 1015.0 mb
METAR: LEMD 020030Z 03005KT 320V080 CAVOK 12/07 Q1015 NOSIG

Google
{'current_conditions': ''}