Metar
station: LEGE
type: routine report, cycle 21 (automatic report)
time: Mon May  3 21:30:00 2010
temperature: 9.0 C
dew point: 7.0 C
wind: N at 12 knots
visibility: 4000 meters
pressure: 1004.0 mb
weather: light rain
sky: a few clouds at 600 feet
     scattered clouds at 2500 feet
     overcast at 4600 feet
METAR: LEGE 032130Z 01012KT 4000 -RA FEW006 SCT025 OVC046 09/07 Q1004

Google
{'current_conditions': ''}