Metar
station: LEGE
type: routine report, cycle 1 (automatic report)
time: Sun May  2 01:30:00 2010
temperature: 14.0 C
dew point: 13.0 C
wind: calm
visibility: 2000 meters
pressure: 1012.0 mb
weather: mist
sky: a few clouds at 300 feet
     scattered clouds at 2800 feet
     broken clouds at 6900 feet
METAR: LEGE 020130Z 00000KT 2000 BR FEW003 SCT028 BKN069 14/13 Q1012

Google
{'current_conditions': ''}