Metar
station: LEGE
type: routine report, cycle 8 (automatic report)
time: Sun May  2 08:30:00 2010
temperature: 15.0 C
dew point: 14.0 C
wind: N to E at 4 knots
visibility: 5000 meters
pressure: 1013.0 mb
weather: mist; nearby fog
sky: scattered clouds at 500 feet
     broken clouds at 2600 feet
METAR: LEGE 020830Z 03004KT 010V080 5000 BR VCFG SCT005 BKN026 15/14 Q1013

Google
{'current_conditions': ''}