Metar
station: LEGE
type: routine report, cycle 19 (automatic report)
time: Mon May  3 19:30:00 2010
temperature: 9.0 C
dew point: 7.0 C
wind: NNW to NE at 10 knots, gusting to 21 knots
visibility: 5000 meters
pressure: 1005.0 mb
weather: light rain
sky: a few clouds at 600 feet
     scattered clouds at 2500 feet
     overcast at 5000 feet
METAR: LEGE 031930Z 01010G21KT 340V050 5000 -RA FEW006 SCT025 OVC050 09/07 Q1005

Google
{'current_conditions': ''}