Metar
station: LEGE
type: routine report, cycle 7 (automatic report)
time: Sun May  2 07:30:00 2010
temperature: 15.0 C
dew point: 13.0 C
wind: N to ENE at 3 knots
visibility: 5000 meters; 2400 meters to W
pressure: 1013.0 mb
weather: mist; nearby fog
sky: scattered clouds at 500 feet
     broken clouds at 3500 feet
METAR: LEGE 020730Z 03003KT 350V060 5000 2400W BR VCFG SCT005 BKN035 15/13 Q1013

Google
{'current_conditions': ''}