Metar
station: LEGE
type: routine report, cycle 12 (automatic report)
time: Mon May  3 12:30:00 2010
temperature: 11.0 C
dew point: 9.0 C
wind: NNW to NE at 8 knots
visibility: 4000 meters
pressure: 1009.0 mb
weather: rain
sky: a few clouds at 1000 feet
     scattered clouds at 2500 feet
     broken clouds at 5000 feet
METAR: LEGE 031230Z 01008KT 340V040 4000 RA FEW010 SCT025 BKN050 11/09 Q1009

Google
{'current_conditions': ''}