Metar
station: LEGE
type: routine report, cycle 22 (automatic report)
time: Mon May  3 22:44:00 2010
temperature: 9.0 C
dew point: 7.0 C
wind: N at 16 knots
visibility: 4000 meters
pressure: 1002.0 mb
weather: heavy rain
sky: a few clouds at 600 feet
     scattered clouds at 2500 feet
     overcast at 4400 feet
METAR: LEGE 032244Z 01016KT 4000 +RA FEW006 SCT025 OVC044 09/07 Q1002

Google
{'current_conditions': ''}