Metar
station: LEGE
type: routine report, cycle 14 (automatic report)
time: Mon May  3 14:30:00 2010
temperature: 10.0 C
dew point: 9.0 C
wind: NNW to NNE at 7 knots
visibility: 4000 meters
pressure: 1008.0 mb
weather: rain
sky: a few clouds at 1000 feet
     scattered clouds at 2500 feet
     overcast at 5000 feet
METAR: LEGE 031430Z 01007KT 330V030 4000 RA FEW010 SCT025 OVC050 10/09 Q1008

Google
{'current_conditions': ''}