Metar
station: LEGE
type: routine report, cycle 6 (automatic report)
time: Sun May  2 06:30:00 2010
temperature: 14.0 C
dew point: 13.0 C
wind: variable at 1 knots
visibility: 5000 meters
pressure: 1012.0 mb
weather: mist; patches of fog
sky: a few clouds at 700 feet
     scattered clouds at 1800 feet
     broken clouds at 3500 feet
METAR: LEGE 020630Z VRB01KT 5000 BR BCFG FEW007 SCT018 BKN035 14/13 Q1012

Google
{'current_conditions': ''}