Metar
station: LEGE
type: routine report (automatic report)
time: Sun May  2 00:30:00 2010
temperature: 14.0 C
dew point: 13.0 C
wind: calm
visibility: 5000 meters
pressure: 1012.0 mb
weather: mist
sky: scattered clouds at 2800 feet
     broken clouds at 5900 feet
METAR: LEGE 020030Z 00000KT 5000 BR SCT028 BKN059 14/13 Q1012

Google
{'current_conditions': ''}