Metar
station: LEGE
type: routine report, cycle 15 (automatic report)
time: Mon May  3 15:30:00 2010
temperature: 11.0 C
dew point: 9.0 C
wind: NNE at 10 knots
visibility: 4000 meters
pressure: 1007.0 mb
weather: rain
sky: a few clouds at 1000 feet
     scattered clouds at 2500 feet
     overcast at 5000 feet
METAR: LEGE 031530Z 02010KT 4000 RA FEW010 SCT025 OVC050 11/09 Q1007

Google
{'current_conditions': ''}