Metar
station: LEGE
type: routine report, cycle 19 (automatic report)
time: Sun May  2 19:30:00 2010
temperature: 12.0 C
dew point: 11.0 C
wind: calm
visibility: 6000 meters
pressure: 1012.0 mb
sky: a few clouds at 1200 feet
     scattered clouds at 2500 feet
     broken clouds at 3600 feet
METAR: LEGE 021930Z 00000KT 6000 FEW012 SCT025 BKN036 12/11 Q1012

Google
{'current_conditions': ''}