Metar
station: LEGE
type: routine report, cycle 18 (automatic report)
time: Mon May  3 18:30:00 2010
temperature: 10.0 C
dew point: 8.0 C
wind: NNW to NE at 9 knots
visibility: 5000 meters
pressure: 1005.0 mb
weather: light rain
sky: a few clouds at 600 feet
     scattered clouds at 2500 feet
     overcast at 5000 feet
METAR: LEGE 031830Z 01009KT 330V040 5000 -RA FEW006 SCT025 OVC050 10/08 Q1005

Google
{'current_conditions': ''}