Metar
station: LEGE
type: routine report, cycle 14 (automatic report)
time: Tue May  4 14:30:00 2010
temperature: 10.0 C
dew point: 9.0 C
wind: S at 7 knots
visibility: 4000 meters
pressure: 1002.0 mb
weather: rain
sky: a few clouds at 900 feet
     scattered clouds at 3500 feet
     broken clouds at 5000 feet
METAR: LEGE 041430Z 17007KT 4000 RA FEW009 SCT035 BKN050 10/09 Q1002

Google
{'current_conditions': ''}