Metar
station: LEGE
type: routine report, cycle 10 (automatic report)
time: Tue May  4 10:00:00 2010
temperature: 9.0 C
dew point: 8.0 C
wind: S to SW at 10 knots
visibility: 7000 meters
pressure: 999.0 mb
weather: drizzle
sky: a few clouds at 500 feet
     scattered clouds at 3000 feet
     broken clouds at 6500 feet
METAR: LEGE 041000Z 20010KT 170V230 7000 DZ FEW005 SCT030 BKN065 09/08 Q0999

Google
{'current_conditions': ''}