Metar
station: LEGE
type: routine report, cycle 13 (automatic report)
time: Tue May  4 13:30:00 2010
temperature: 10.0 C
dew point: 9.0 C
wind: SE to SSW at 10 knots
visibility: 8000 meters
pressure: 1002.0 mb
weather: rain
sky: a few clouds at 1500 feet
     scattered clouds at 4000 feet
     broken clouds at 5500 feet
METAR: LEGE 041330Z 17010KT 140V200 8000 RA FEW015 SCT040 BKN055 10/09 Q1002

Google
{'current_conditions': ''}