Metar
station: GCHI
type: routine report, cycle 8 (automatic report)
time: Sun May  2 08:00:00 2010
temperature: 20.0 C
dew point: 16.0 C
wind: NNW to ENE at 14 knots
visibility: greater than 10000 meters
pressure: 1018.0 mb
sky: a few clouds at 2300 feet
     broken clouds at 2700 feet
METAR: GCHI 020800Z 01014KT 330V060 9999 FEW023 BKN027 20/16 Q1018

Google
{'current_conditions': ''}