Metar
station: LEMO
type: routine report, cycle 1 (automatic report)
time: Sun May  2 01:00:00 2010
temperature: 16.0 C
dew point: 13.0 C
wind: S to W at 7 knots
visibility: 10000 meters
pressure: 1014.0 mb
METAR: LEMO 020100Z 21007KT 180V260 CAVOK 16/13 Q1014 NOSIG

Google
{'current_conditions': ''}