Metar
station: LEMO
type: routine report, cycle 22 (automatic report)
time: Sun May  2 22:00:00 2010
temperature: 16.0 C
dew point: 11.0 C
wind: SW at 5 knots
visibility: 10000 meters
pressure: 1012.0 mb
METAR: LEMO 022200Z 22005KT CAVOK 16/11 Q1012 NOSIG

Google
{'current_conditions': ''}