Metar
station: LEMO
type: routine report, cycle 2 (automatic report)
time: Sun May  2 02:00:00 2010
temperature: 15.0 C
dew point: 13.0 C
wind: WSW at 7 knots
visibility: 10000 meters
pressure: 1014.0 mb
METAR: LEMO 020200Z 24007KT CAVOK 15/13 Q1014 NOSIG

Google
{'current_conditions': ''}