Metar
station: LEMO
type: routine report, cycle 1 (automatic report)
time: Tue May  4 01:00:00 2010
temperature: 12.0 C
dew point: 5.0 C
wind: WNW to NNE at 6 knots
visibility: 10000 meters
pressure: 1013.0 mb
METAR: LEMO 040100Z 36006KT 300V030 CAVOK 12/05 Q1013 NOSIG

Google
{'current_conditions': ''}