Metar
station: LEMO
type: routine report, cycle 15 (automatic report)
time: Tue May  4 15:00:00 2010
temperature: 19.0 C
dew point: 2.0 C
wind: NW to NE at 12 knots, gusting to 24 knots
visibility: greater than 10000 meters
pressure: 1012.0 mb
sky: a few clouds at 5000 feet
METAR: LEMO 041500Z 36012G24KT 310V050 9999 FEW050 19/02 Q1012 NOSIG

Google
{'current_conditions': ''}