Metar
station: LEMG
type: routine report, cycle 19 (automatic report)
time: Mon May  3 19:00:00 2010
temperature: 22.0 C
dew point: -1.0 C
wind: NNW at 16 knots
visibility: greater than 10000 meters
pressure: 1010.0 mb
sky: a few clouds at 4000 feet
METAR: LEMG 031900Z 33016KT 9999 FEW040 22/M01 Q1010 NOSIG

Google
{'current_conditions': ''}