Metar
station: LEMG
type: routine report, cycle 12 (automatic report)
time: Mon May  3 12:30:00 2010
temperature: 24.0 C
dew point: 5.0 C
wind: W to NNW at 20 knots, gusting to 30 knots
visibility: greater than 10000 meters
pressure: 1008.0 mb
sky: a few clouds at 4000 feet
METAR: LEMG 031230Z 31020G30KT 270V340 9999 FEW040 24/05 Q1008 NOSIG

Google
{'current_conditions': ''}