Metar
station: LEMG
type: routine report, cycle 8 (automatic report)
time: Tue May  4 08:30:00 2010
temperature: 17.0 C
dew point: 2.0 C
wind: W to NNW at 15 knots
visibility: greater than 10000 meters
pressure: 1011.0 mb
sky: a few clouds at 4000 feet
METAR: LEMG 040830Z 31015KT 280V340 9999 FEW040 17/02 Q1011 NOSIG

Google
{'current_conditions': ''}