Metar
station: LEMG
type: routine report, cycle 13 (automatic report)
time: Tue May  4 13:30:00 2010
temperature: 20.0 C
dew point: -1.0 C
wind: W to N at 19 knots, gusting to 31 knots
visibility: greater than 10000 meters
pressure: 1010.0 mb
sky: a few clouds at 2000 feet
METAR: LEMG 041330Z 31019G31KT 280V350 9999 FEW020 20/M01 Q1010 NOSIG

Google
{'current_conditions': ''}