Metar
station: LEMG
type: routine report, cycle 21 (automatic report)
time: Sun May  2 21:30:00 2010
temperature: 18.0 C
dew point: 15.0 C
wind: WNW at 3 knots
visibility: 10000 meters
pressure: 1010.0 mb
METAR: LEMG 022130Z 30003KT CAVOK 18/15 Q1010 NOSIG

Google
{'current_conditions': ''}