Metar
station: LEMG
type: routine report, cycle 4 (automatic report)
time: Sun May  2 04:30:00 2010
temperature: 20.0 C
dew point: 11.0 C
wind: W to NW at 13 knots
visibility: 10000 meters
pressure: 1012.0 mb
METAR: LEMG 020430Z 29013KT 260V320 CAVOK 20/11 Q1012 NOSIG

Google
{'current_conditions': ''}