Metar
station: LEMG
type: routine report, cycle 23 (automatic report)
time: Mon May  3 23:30:00 2010
temperature: 18.0 C
dew point: 2.0 C
wind: W to NW at 11 knots
visibility: greater than 10000 meters
pressure: 1011.0 mb
sky: a few clouds at 5000 feet
METAR: LEMG 032330Z 29011KT 260V320 9999 FEW050 18/02 Q1011 NOSIG

Google
{'current_conditions': ''}