Metar
station: GEML
type: routine report, cycle 8 (automatic report)
time: Tue May  4 08:30:00 2010
temperature: 19.0 C
dew point: 10.0 C
wind: SW to NW at 14 knots, gusting to 24 knots
visibility: greater than 10000 meters
pressure: 1010.0 mb
sky: a few clouds at 3000 feet
METAR: GEML 040830Z 27014G24KT 230V310 9999 FEW030 19/10 Q1010

Google
{'current_conditions': ''}