Metar
station: GEML
type: routine report, cycle 18 (automatic report)
time: Sun May  2 18:00:00 2010
temperature: 21.0 C
dew point: 13.0 C
wind: SW to WNW at 6 knots
visibility: 10000 meters
pressure: 1011.0 mb
METAR: GEML 021800Z 26006KT 220V300 CAVOK 21/13 Q1011

Google
{'current_conditions': ''}