Metar
station: GEML
type: routine report, cycle 18 (automatic report)
time: Mon May  3 18:00:00 2010
temperature: 20.0 C
dew point: 10.0 C
wind: SW to WNW at 15 knots, gusting to 28 knots
visibility: greater than 10000 meters
pressure: 1009.0 mb
sky: a few clouds at 2000 feet
METAR: GEML 031800Z 26015G28KT 230V300 9999 FEW020 20/10 Q1009 WS ALL RWY

Google
{'current_conditions': ''}