Metar
station: GEML
type: routine report, cycle 4 (automatic report)
time: Sun May  2 04:30:00 2010
temperature: 19.0 C
dew point: 11.0 C
wind: SSW to W at 9 knots
visibility: 10000 meters
pressure: 1013.0 mb
METAR: GEML 020430Z 25009KT 210V270 CAVOK 19/11 Q1013

Google
{'current_conditions': ''}