Metar
station: GEML
type: routine report, cycle 10 (automatic report)
time: Sun May  2 10:30:00 2010
temperature: 23.0 C
dew point: 13.0 C
wind: WSW to NW at 12 knots
visibility: 10000 meters
pressure: 1015.0 mb
METAR: GEML 021030Z 28012KT 240V310 CAVOK 23/13 Q1015

Google
{'current_conditions': ''}