Metar
station: GEML
type: routine report, cycle 18 (automatic report)
time: Sat May  1 18:00:00 2010
temperature: 22.0 C
dew point: 12.0 C
wind: SW to WNW at 18 knots, gusting to 28 knots
visibility: 10000 meters
pressure: 1011.0 mb
METAR: GEML 011800Z 26018G28KT 220V290 CAVOK 22/12 Q1011

Google
{'current_conditions': ''}