Metar
station: GCXO
type: routine report, cycle 11 (automatic report)
time: Mon May  3 11:30:00 2010
temperature: 16.0 C
dew point: 10.0 C
wind: WNW to NE at 9 knots
visibility: greater than 10000 meters
pressure: 1020.0 mb
sky: broken clouds at 2000 feet
METAR: GCXO 031130Z 34009KT 290V040 9999 BKN020 16/10 Q1020 NOSIG

Google
{'current_conditions': ''}