Metar
station: GCXO
type: routine report, cycle 19 (automatic report)
time: Sun May  2 19:30:00 2010
temperature: 14.0 C
dew point: 12.0 C
wind: WNW to N at 14 knots
visibility: greater than 10000 meters
pressure: 1018.0 mb
sky: a few clouds at 900 feet
     broken clouds at 1800 feet
METAR: GCXO 021930Z 33014KT 300V010 9999 FEW009 BKN018 14/12 Q1018 NOSIG

Google
{'current_conditions': ''}