Metar
station: GCXO
type: routine report, cycle 8 (automatic report)
time: Sun May  2 08:30:00 2010
temperature: 14.0 C
dew point: 13.0 C
wind: NW at 14 knots
visibility: 8000 meters
pressure: 1019.0 mb
sky: a few clouds at 300 feet
     broken clouds at 1300 feet
METAR: GCXO 020830Z 31014KT 8000 FEW003 BKN013 14/13 Q1019 NOSIG

Google
{'current_conditions': ''}