Metar
station: GCXO
type: routine report, cycle 13 (automatic report)
time: Tue May  4 13:30:00 2010
temperature: 19.0 C
dew point: 12.0 C
wind: W to N at 10 knots
visibility: greater than 10000 meters
pressure: 1018.0 mb
sky: a few clouds at 1200 feet
METAR: GCXO 041330Z 32010KT 280V360 9999 FEW012 19/12 Q1018 NOSIG

Google
{'current_conditions': ''}