Metar
station: LELL
type: routine report, cycle 18 (automatic report)
time: Mon May  3 18:30:00 2010
temperature: 9.0 C
dew point: 6.0 C
wind: WNW to N at 8 knots
visibility: 9000 meters
pressure: 1005.0 mb
weather: rain
sky: a few clouds at 800 feet
     broken clouds at 5000 feet
METAR: LELL 031830Z 33008KT 300V360 9000 RA FEW008 BKN050 09/06 Q1005

Google
{'current_conditions': ''}