Metar
station: LELL
type: routine report, cycle 13 (automatic report)
time: Tue May  4 13:30:00 2010
temperature: 12.0 C
dew point: 6.0 C
wind: ESE to S at 5 knots
visibility: greater than 10000 meters
pressure: 1002.0 mb
sky: a few clouds at 1300 feet
     broken clouds at 6800 feet
METAR: LELL 041330Z 15005KT 110V170 9999 FEW013 BKN068 12/06 Q1002

Google
{'current_conditions': ''}