Metar
station: LELL
type: routine report, cycle 13 (automatic report)
time: Mon May  3 13:30:00 2010
temperature: 10.0 C
dew point: 8.0 C
wind: E at 1 knots
visibility: 7000 meters
pressure: 1008.0 mb
weather: rain
sky: a few clouds at 800 feet
     scattered clouds at 1600 feet
     broken clouds at 3500 feet
METAR: LELL 031330Z 08001KT 7000 RA FEW008 SCT016 BKN035 10/08 Q1008

Google
{'current_conditions': ''}