Metar
station: LELL
type: routine report, cycle 18 (automatic report)
time: Sun May  2 18:30:00 2010
temperature: 16.0 C
dew point: 9.0 C
wind: SSE to SW at 3 knots
visibility: greater than 10000 meters
pressure: 1011.0 mb
sky: a few clouds at 1400 feet
METAR: LELL 021830Z 19003KT 160V220 9999 FEW014 16/09 Q1011

Google
{'current_conditions': ''}