Metar
station: LELL
type: routine report, cycle 5 (automatic report)
time: Sun May  2 05:30:00 2010
temperature: 15.0 C
dew point: 13.0 C
wind: variable at 1 knots
visibility: 8000 meters
pressure: 1012.0 mb
sky: a few clouds at 1200 feet
     broken clouds at 2000 feet
METAR: LELL 020530Z VRB01KT 8000 FEW012 BKN020 15/13 Q1012

Google
{'current_conditions': ''}