Metar
station: LELL
type: routine report, cycle 10 (automatic report)
time: Sun May  2 10:30:00 2010
temperature: 18.0 C
dew point: 9.0 C
wind: ESE to SSW at 6 knots
visibility: greater than 10000 meters
pressure: 1013.0 mb
sky: a few clouds at 1800 feet
     scattered clouds at 3000 feet
     broken clouds at 3700 feet
METAR: LELL 021030Z 15006KT 110V210 9999 FEW018 SCT030 BKN037 18/09 Q1013

Google
{'current_conditions': ''}