Metar
station: LELL
type: routine report, cycle 14 (automatic report)
time: Mon May  3 14:30:00 2010
temperature: 10.0 C
dew point: 7.0 C
wind: W to NE at 6 knots
visibility: 8000 meters
pressure: 1007.0 mb
weather: light rain
sky: a few clouds at 800 feet
     broken clouds at 5100 feet
METAR: LELL 031430Z 36006KT 280V040 8000 -RA FEW008 BKN051 10/07 Q1007

Google
{'current_conditions': ''}