Metar
station: LELL
type: routine report, cycle 8 (automatic report)
time: Tue May  4 08:30:00 2010
temperature: 8.0 C
dew point: 5.0 C
wind: SW to WNW at 5 knots
visibility: greater than 10000 meters
pressure: 999.0 mb
sky: a few clouds at 500 feet
     broken clouds at 7000 feet
METAR: LELL 040830Z 26005KT 230V290 9999 FEW005 BKN070 08/05 Q0999

Google
{'current_conditions': ''}