Metar
station: LEIB
type: routine report, cycle 10 (automatic report)
time: Tue May  4 10:30:00 2010
temperature: 14.0 C
dew point: 5.0 C
wind: W to N at 7 knots
visibility: greater than 10000 meters
pressure: 1004.0 mb
sky: a few clouds at 1800 feet
     scattered clouds at 4400 feet
METAR: LEIB 041030Z 31007KT 260V350 9999 FEW018 SCT044 14/05 Q1004 NOSIG

Google
{'current_conditions': ''}