Metar
station: LEIB
type: routine report, cycle 10 (automatic report)
time: Tue May  4 10:00:00 2010
temperature: 14.0 C
dew point: 6.0 C
wind: WSW to N at 6 knots
visibility: greater than 10000 meters
pressure: 1004.0 mb
sky: a few clouds at 1800 feet
METAR: LEIB 041000Z 30006KT 240V010 9999 FEW018 14/06 Q1004 NOSIG

Google
{'current_conditions': ''}