Metar
station: LEIB
type: routine report, cycle 3 (automatic report)
time: Sun May  2 03:30:00 2010
temperature: 16.0 C
dew point: 15.0 C
wind: calm
visibility: 10000 meters
pressure: 1012.0 mb
METAR: LEIB 020330Z 00000KT CAVOK 16/15 Q1012 NOSIG

Google
{'current_conditions': ''}