Metar
station: LEIB
type: routine report, cycle 12 (automatic report)
time: Tue May  4 12:30:00 2010
temperature: 14.0 C
dew point: 5.0 C
wind: W to N at 7 knots
visibility: greater than 10000 meters
pressure: 1005.0 mb
sky: a few clouds at 1800 feet
METAR: LEIB 041230Z 31007KT 280V350 9999 FEW018 14/05 Q1005 NOSIG

Google
{'current_conditions': ''}