Metar
station: LEIB
type: routine report, cycle 21 (automatic report)
time: Mon May  3 21:30:00 2010
temperature: 11.0 C
dew point: 10.0 C
wind: WNW at 10 knots
visibility: 6000 meters
pressure: 1006.0 mb
weather: light rain
sky: scattered clouds at 1200 feet
     broken clouds at 3000 feet
METAR: LEIB 032130Z 30010KT 6000 -RA SCT012 BKN030 11/10 Q1006 NOSIG

Google
{'current_conditions': ''}