Metar
station: LEIB
type: routine report, cycle 7 (automatic report)
time: Sun May  2 07:30:00 2010
temperature: 20.0 C
dew point: 15.0 C
wind: NNE to E at 7 knots
visibility: 9000 meters
pressure: 1013.0 mb
sky: a few clouds at 1000 feet
METAR: LEIB 020730Z 05007KT 020V080 9000 FEW010 20/15 Q1013 NOSIG

Google
{'current_conditions': ''}