Metar
station: LEIB
type: routine report, cycle 21 (automatic report)
time: Sun May  2 21:30:00 2010
temperature: 18.0 C
dew point: 16.0 C
wind: SE at 3 knots
visibility: 9000 meters
pressure: 1011.0 mb
sky: scattered clouds at 1000 feet
METAR: LEIB 022130Z 13003KT 9000 SCT010 18/16 Q1011 NOSIG

Google
{'current_conditions': ''}