Metar
station: LEIB
type: routine report, cycle 20 (automatic report)
time: Mon May  3 20:30:00 2010
temperature: 12.0 C
dew point: 10.0 C
wind: WNW to N at 10 knots
visibility: greater than 10000 meters
pressure: 1006.0 mb
weather: drizzle
sky: scattered clouds at 1500 feet
     broken clouds at 3000 feet
METAR: LEIB 032030Z 33010KT 290V360 9999 DZ SCT015 BKN030 12/10 Q1006 NOSIG

Google
{'current_conditions': ''}