Metar
station: LEIB
type: routine report, cycle 11 (automatic report)
time: Sun May  2 11:30:00 2010
temperature: 20.0 C
dew point: 16.0 C
wind: ENE to SSE at 7 knots
visibility: 9000 meters
pressure: 1014.0 mb
sky: a few clouds at 1600 feet
METAR: LEIB 021130Z 10007KT 060V150 9000 FEW016 20/16 Q1014 NOSIG

Google
{'current_conditions': ''}