Metar
station: LEIB
type: routine report, cycle 14 (automatic report)
time: Sun May  2 14:30:00 2010
temperature: 22.0 C
dew point: 16.0 C
wind: NE to SE at 7 knots
visibility: 9000 meters
pressure: 1012.0 mb
sky: a few clouds at 1600 feet
METAR: LEIB 021430Z 10007KT 050V130 9000 FEW016 22/16 Q1012 NOSIG

Google
{'current_conditions': ''}