Metar
station: LERT
type: routine report, cycle 16 (automatic report)
time: Mon May  3 16:00:00 2010
temperature: 22.0 C
dew point: 7.0 C
wind: W to NNW at 17 knots
visibility: greater than 10000 meters
pressure: 1011.0 mb
sky: a few clouds at 3000 feet
METAR: LERT 031600Z 30017KT 270V330 9999 FEW030 22/07 Q1011 NOSIG

Google
{'current_conditions': ''}