Metar
station: LERT
type: routine report, cycle 8 (automatic report)
time: Sun May  2 08:00:00 2010
temperature: 19.0 C
dew point: 15.0 C
wind: variable at 2 knots
visibility: 10000 meters
pressure: 1015.0 mb
METAR: LERT 020800Z VRB02KT CAVOK 19/15 Q1015 NOSIG

Google
{'current_conditions': ''}