Metar
station: LERT
type: routine report, cycle 12 (automatic report)
time: Mon May  3 12:00:00 2010
temperature: 20.0 C
dew point: 9.0 C
wind: W to NNW at 12 knots
visibility: 10000 meters
pressure: 1012.0 mb
METAR: LERT 031200Z 31012KT 260V340 CAVOK 20/09 Q1012 NOSIG

Google
{'current_conditions': ''}