Metar
station: LERT
type: routine report, cycle 21 (automatic report)
time: Sun May  2 21:00:00 2010
temperature: 18.0 C
dew point: 14.0 C
wind: WNW at 9 knots
visibility: 10000 meters
pressure: 1012.0 mb
METAR: LERT 022100Z 29009KT CAVOK 18/14 Q1012 NOSIG

Google
{'current_conditions': ''}