Metar
station: LEBL
type: routine report, cycle 11 (automatic report)
time: Mon May  3 11:30:00 2010
temperature: 12.0 C
dew point: 10.0 C
wind: NE at 12 knots
visibility: 7000 meters
pressure: 1008.0 mb
weather: rain
sky: a few clouds at 1300 feet
     broken clouds at 3000 feet
METAR: LEBL 031130Z 05012KT 7000 RA FEW013 BKN030 12/10 Q1008 NOSIG

Google
{'current_conditions': ''}