Metar
station: LEBL
type: routine report, cycle 21 (automatic report)
time: Mon May  3 21:30:00 2010
temperature: 10.0 C
dew point: 8.0 C
wind: NNW at 11 knots
visibility: 9000 meters
pressure: 1004.0 mb
weather: rain
sky: a few clouds at 1000 feet
     broken clouds at 4500 feet
METAR: LEBL 032130Z 34011KT 9000 RA FEW010 BKN045 10/08 Q1004 NOSIG

Google
{'current_conditions': ''}