Metar
station: LEBL
type: routine report, cycle 10 (automatic report)
time: Sun May  2 10:30:00 2010
temperature: 18.0 C
dew point: 12.0 C
wind: SSE to SSW at 9 knots
visibility: greater than 10000 meters
pressure: 1013.0 mb
sky: a few clouds at 2500 feet
METAR: LEBL 021030Z 18009KT 150V210 9999 FEW025 18/12 Q1013 NOSIG

Google
{'current_conditions': ''}