Metar
station: LEBL
type: routine report, cycle 22 (automatic report)
time: Sun May  2 22:30:00 2010
temperature: 17.0 C
dew point: 14.0 C
wind: ESE to S at 10 knots
visibility: greater than 10000 meters
pressure: 1011.0 mb
weather: rain
sky: scattered clouds at 1700 feet
     scattered clouds at 2600 feet
METAR: LEBL 022230Z 14010KT 110V170 9999 RA SCT017 SCT026 17/14 Q1011 NOSIG

Google
{'current_conditions': ''}