Metar
station: LEBL
type: routine report, cycle 14 (automatic report)
time: Mon May  3 14:30:00 2010
temperature: 11.0 C
dew point: 10.0 C
wind: N to ENE at 11 knots
visibility: 6000 meters
pressure: 1007.0 mb
weather: rain
sky: a few clouds at 800 feet
     scattered clouds at 1500 feet
     broken clouds at 3400 feet
METAR: LEBL 031430Z 05011KT 010V070 6000 RA FEW008 SCT015 BKN034 11/10 Q1007 NOSIG

Google
{'current_conditions': ''}