Metar
station: LEBL
type: routine report, cycle 19 (automatic report)
time: Mon May  3 19:30:00 2010
temperature: 10.0 C
dew point: 9.0 C
wind: NNW to ENE at 7 knots
visibility: 7000 meters
pressure: 1005.0 mb
weather: rain
sky: a few clouds at 1000 feet
     broken clouds at 4500 feet
METAR: LEBL 031930Z 01007KT 330V060 7000 RA FEW010 BKN045 10/09 Q1005 NOSIG

Google
{'current_conditions': ''}