Metar
station: LEBL
type: routine report, cycle 4 (automatic report)
time: Sun May  2 04:30:00 2010
temperature: 16.0 C
dew point: 13.0 C
wind: S to W at 6 knots
visibility: greater than 10000 meters
pressure: 1012.0 mb
sky: scattered clouds at 1400 feet
METAR: LEBL 020430Z 22006KT 190V260 9999 SCT014 16/13 Q1012 NOSIG

Google
{'current_conditions': ''}