Metar
station: LEBL
type: routine report, cycle 2 (automatic report)
time: Sun May  2 02:30:00 2010
temperature: 16.0 C
dew point: 14.0 C
wind: SW at 5 knots
visibility: 7000 meters
pressure: 1012.0 mb
sky: a few clouds at 1800 feet
     scattered clouds at 4000 feet
METAR: LEBL 020230Z 23005KT 7000 FEW018 SCT040 16/14 Q1012 NOSIG

Google
{'current_conditions': ''}