Metar
station: LEBL
type: routine report, cycle 23 (automatic report)
time: Mon May  3 23:30:00 2010
temperature: 10.0 C
dew point: 8.0 C
wind: W at 7 knots
visibility: 9000 meters
pressure: 1003.0 mb
weather: rain
sky: a few clouds at 1000 feet
     broken clouds at 4500 feet
METAR: LEBL 032330Z 27007KT 9000 RA FEW010 BKN045 10/08 Q1003 NOSIG

Google
{'current_conditions': ''}