Metar
station: LEBL
type: routine report (automatic report)
time: Sun May  2 00:00:00 2010
temperature: 17.0 C
dew point: 14.0 C
wind: SW at 4 knots
visibility: 8000 meters
pressure: 1013.0 mb
sky: a few clouds at 1800 feet
     scattered clouds at 4000 feet
METAR: LEBL 020000Z 23004KT 8000 FEW018 SCT040 17/14 Q1013 NOSIG

Google
{'current_conditions': ''}