Metar
station: LEBL
type: routine report, cycle 1 (automatic report)
time: Sun May  2 01:30:00 2010
temperature: 16.0 C
dew point: 14.0 C
wind: WSW at 5 knots
visibility: 6000 meters
pressure: 1012.0 mb
sky: a few clouds at 1800 feet
     scattered clouds at 4000 feet
METAR: LEBL 020130Z 24005KT 6000 FEW018 SCT040 16/14 Q1012 NOSIG

Google
{'current_conditions': ''}