Metar
station: LEBL
type: routine report, cycle 8 (automatic report)
time: Sun May  2 08:30:00 2010
temperature: 19.0 C
dew point: 10.0 C
wind: SSE to WNW at 4 knots
visibility: greater than 10000 meters
pressure: 1013.0 mb
sky: scattered clouds at 2500 feet
METAR: LEBL 020830Z 22004KT 150V290 9999 SCT025 19/10 Q1013 NOSIG

Google
{'current_conditions': ''}