Metar
station: LEPA
type: routine report, cycle 8 (automatic report)
time: Tue May  4 08:30:00 2010
temperature: 12.0 C
dew point: 9.0 C
wind: S to WNW at 3 knots
visibility: greater than 10000 meters
pressure: 1003.0 mb
weather: light rain
sky: a few clouds at 2000 feet
     broken clouds at 4000 feet
METAR: LEPA 040830Z 24003KT 190V290 9999 -RA FEW020 BKN040 12/09 Q1003 NOSIG

Google
{'current_conditions': ''}