Metar
station: LEPA
type: routine report, cycle 8 (automatic report)
time: Sun May  2 08:30:00 2010
temperature: 20.0 C
dew point: 14.0 C
wind: N to ESE at 5 knots
visibility: greater than 10000 meters
pressure: 1013.0 mb
sky: a few clouds at 2000 feet
METAR: LEPA 020830Z 06005KT 010V120 9999 FEW020 20/14 Q1013 NOSIG

Google
{'current_conditions': ''}