Metar
station: LEPA
type: routine report, cycle 13 (automatic report)
time: Tue May  4 13:30:00 2010
temperature: 15.0 C
dew point: 6.0 C
wind: SW to NW at 9 knots
visibility: greater than 10000 meters
pressure: 1004.0 mb
sky: a few clouds at 2000 feet
     scattered clouds at 4000 feet
METAR: LEPA 041330Z 27009KT 220V320 9999 FEW020 SCT040 15/06 Q1004 NOSIG

Google
{'current_conditions': ''}