Metar
station: LEPA
type: routine report, cycle 11 (automatic report)
time: Mon May  3 11:30:00 2010
temperature: 16.0 C
dew point: 15.0 C
wind: ENE to SE at 9 knots
visibility: 2000 meters
pressure: 1005.0 mb
weather: thunderstorm with rain
sky: scattered cumulonimbus at 900 feet
     broken clouds at 1600 feet
METAR: LEPA 031130Z 10009KT 060V140 2000 TSRA SCT009CB BKN016 16/15 Q1005 NOSIG

Google
{'current_conditions': ''}