Metar
station: LEPA
type: routine report, cycle 22 (automatic report)
time: Mon May  3 22:30:00 2010
temperature: 13.0 C
dew point: 10.0 C
wind: W to NNW at 23 knots, gusting to 35 knots
visibility: greater than 10000 meters
pressure: 1000.0 mb
weather: light rain
sky: a few clouds at 1500 feet
     broken clouds at 7000 feet
METAR: LEPA 032230Z 31023G35KT 280V340 9999 -RA FEW015 BKN070 13/10 Q1000 NOSIG

Google
{'current_conditions': ''}