Metar
station: LEPA
type: routine report, cycle 5 (automatic report)
time: Sun May  2 05:30:00 2010
temperature: 13.0 C
dew point: 13.0 C
wind: calm
visibility: 3000 meters
pressure: 1012.0 mb
weather: mist
sky: a few clouds at 1000 feet
METAR: LEPA 020530Z 00000KT 3000 BR FEW010 13/13 Q1012 NOSIG

Google
{'current_conditions': ''}