Metar
station: LEPA
type: routine report, cycle 7 (automatic report)
time: Sun May  2 07:30:00 2010
temperature: 18.0 C
dew point: 15.0 C
wind: NNE to E at 8 knots
visibility: greater than 10000 meters
pressure: 1013.0 mb
sky: a few clouds at 2000 feet
METAR: LEPA 020730Z 05008KT 020V080 9999 FEW020 18/15 Q1013 NOSIG

Google
{'current_conditions': ''}