Metar
station: LEPA
type: routine report, cycle 12 (automatic report)
time: Tue May  4 12:30:00 2010
temperature: 14.0 C
dew point: 7.0 C
wind: WSW to N at 9 knots
visibility: greater than 10000 meters
pressure: 1004.0 mb
sky: a few clouds at 2000 feet
     scattered clouds at 5000 feet
METAR: LEPA 041230Z 27009KT 240V350 9999 FEW020 SCT050 14/07 Q1004 NOSIG

Google
{'current_conditions': ''}