Metar
station: LEPA
type: routine report, cycle 2 (automatic report)
time: Sun May  2 02:30:00 2010
temperature: 14.0 C
dew point: 13.0 C
wind: variable at 1 knots
visibility: 7000 meters
pressure: 1012.0 mb
sky: a few clouds at 1200 feet
METAR: LEPA 020230Z VRB01KT 7000 FEW012 14/13 Q1012 NOSIG

Google
{'current_conditions': ''}