Metar
station: LEPA
type: routine report, cycle 10 (automatic report)
time: Tue May  4 10:30:00 2010
temperature: 13.0 C
dew point: 9.0 C
wind: SSW to W at 7 knots
visibility: greater than 10000 meters
pressure: 1003.0 mb
sky: a few clouds at 2000 feet
     scattered clouds at 5500 feet
METAR: LEPA 041030Z 24007KT 200V280 9999 FEW020 SCT055 13/09 Q1003 NOSIG

Google
{'current_conditions': ''}