Metar
station: LEPA
type: routine report, cycle 20 (automatic report)
time: Mon May  3 20:30:00 2010
temperature: 13.0 C
dew point: 12.0 C
wind: N to ENE at 5 knots
visibility: greater than 10000 meters
pressure: 999.0 mb
sky: a few clouds at 1200 feet
METAR: LEPA 032030Z 04005KT 010V070 9999 FEW012 13/12 Q0999 NOSIG

Google
{'current_conditions': ''}