Metar
station: LECV
type: routine report, cycle 15 (automatic report)
time: Mon May  3 15:00:00 2010
temperature: 10.0 C
dew point: 2.0 C
wind: NW to NNE at 20 knots, gusting to 34 knots
visibility: 9000 meters
pressure: 1012.0 mb
weather: nearby showers
sky: scattered towering cumulus at 3000 feet
     scattered clouds at 4500 feet
METAR: LECV 031500Z 36020G34KT 320V030 9000 VCSH SCT030TCU SCT045 10/02 Q1012

Google
{'current_conditions': ''}