Metar
station: LECV
type: routine report, cycle 11 (automatic report)
time: Tue May  4 11:08:00 2010
temperature: 7.0 C
dew point: -3.0 C
wind: NW to ENE at 27 knots, gusting to 47 knots
visibility: greater than 10000 meters
pressure: 1010.0 mb
sky: scattered clouds at 3000 feet
METAR: LECV 041108Z 01027G47KT 320V060 9999 SCT030 07/M03 Q1010

Google
{'current_conditions': ''}