Metar
station: LECV
type: routine report, cycle 14 (automatic report)
time: Mon May  3 14:00:00 2010
temperature: 10.0 C
dew point: 2.0 C
wind: NNW to ENE at 15 knots, gusting to 27 knots
visibility: greater than 10000 meters
pressure: 1012.0 mb
sky: scattered towering cumulus at 3000 feet
     scattered clouds at 4500 feet
METAR: LECV 031400Z 36015G27KT 330V060 9999 SCT030TCU SCT045 10/02 Q1012

Google
{'current_conditions': ''}