Metar
station: LECV
type: routine report, cycle 18 (automatic report)
time: Mon May  3 18:00:00 2010
temperature: 7.0 C
dew point: -1.0 C
wind: NNW to ENE at 16 knots
visibility: 8000 meters
pressure: 1012.0 mb
weather: nearby showers
sky: a few cumulonimbus at 3000 feet
     scattered clouds at 4500 feet
METAR: LECV 031800Z 01016KT 340V060 8000 VCSH FEW030CB SCT045 07/M01 Q1012

Google
{'current_conditions': ''}