Metar
station: LECV
type: routine report, cycle 18 (automatic report)
time: Sat May  1 18:00:00 2010
temperature: 16.0 C
dew point: 5.0 C
wind: NNE at 8 knots
visibility: greater than 10000 meters
pressure: 1013.0 mb
sky: scattered clouds at 5000 feet
METAR: LECV 011800Z 02008KT 9999 SCT050 16/05 Q1013

Google
{'current_conditions': ''}