Metar
station: LEVX
type: routine report, cycle 5 (automatic report)
time: Sun May  2 05:30:00 2010
temperature: 10.0 C
dew point: 8.0 C
wind: NNE at 5 knots
visibility: greater than 10000 meters
pressure: 1017.0 mb
sky: a few clouds at 4000 feet
METAR: LEVX 020530Z 02005KT 9999 FEW040 10/08 Q1017

Google
{'current_conditions': ''}