Metar
station: LEVX
type: routine report, cycle 16 (automatic report)
time: Mon May  3 16:00:00 2010
temperature: 16.0 C
dew point: 5.0 C
wind: NNW to NE at 17 knots
visibility: greater than 10000 meters
pressure: 1021.0 mb
sky: scattered clouds at 5300 feet
METAR: LEVX 031600Z 01017KT 340V040 9999 SCT053 16/05 Q1021

Google
{'current_conditions': ''}