Metar
station: LEVX
type: routine report, cycle 22 (automatic report)
time: Mon May  3 22:30:00 2010
temperature: 7.0 C
dew point: 4.0 C
wind: NNE to E at 5 knots
visibility: greater than 10000 meters
pressure: 1023.0 mb
sky: a few clouds at 4800 feet
METAR: LEVX 032230Z 04005KT 020V080 9999 FEW048 07/04 Q1023

Google
{'current_conditions': ''}