Metar
station: LEVX
type: routine report, cycle 23 (automatic report)
time: Mon May  3 23:30:00 2010
temperature: 7.0 C
dew point: 4.0 C
wind: NNW to NE at 8 knots
visibility: 10000 meters
pressure: 1023.0 mb
METAR: LEVX 032330Z 01008KT 340V040 CAVOK 07/04 Q1023

Google
{'current_conditions': ''}