Metar
station: LEZL
type: routine report, cycle 19 (automatic report)
time: Sun May  2 19:30:00 2010
temperature: 20.0 C
dew point: 13.0 C
wind: SW at 12 knots
visibility: 10000 meters
pressure: 1011.0 mb
METAR: LEZL 021930Z 22012KT CAVOK 20/13 Q1011 NOSIG

Google
{'current_conditions': ''}