Metar
station: LEZL
type: routine report, cycle 12 (automatic report)
time: Mon May  3 12:30:00 2010
temperature: 22.0 C
dew point: 5.0 C
wind: NNW to NE at 12 knots
visibility: 10000 meters
pressure: 1011.0 mb
METAR: LEZL 031230Z 01012KT 330V050 CAVOK 22/05 Q1011 NOSIG

Google
{'current_conditions': ''}