Metar
station: LEZL
type: routine report, cycle 23 (automatic report)
time: Sat May  1 23:00:00 2010
temperature: 19.0 C
dew point: 11.0 C
wind: variable at 1 knots
visibility: 10000 meters
pressure: 1014.0 mb
METAR: LEZL 012300Z VRB01KT CAVOK 19/11 Q1014 NOSIG

Google
{'current_conditions': ''}