Metar
station: LEAL
type: routine report, cycle 12 (automatic report)
time: Mon May  3 12:30:00 2010
temperature: 10.0 C
dew point: 10.0 C
wind: variable at 1 knots
visibility: 5000 meters
pressure: 1006.0 mb
weather: thunderstorm with rain
sky: broken clouds at 2500 feet
     a few cumulonimbus at 3000 feet
METAR: LEAL 031230Z VRB01KT 5000 TSRA BKN025 FEW030CB 10/10 Q1006 BECMG 7000 NSW

Google
{'current_conditions': ''}