Metar
station: LEAL
type: routine report, cycle 14 (automatic report)
time: Tue May  4 14:30:00 2010
temperature: 17.0 C
dew point: -0.0 C
wind: WSW to NW at 19 knots, gusting to 31 knots
visibility: greater than 10000 meters
pressure: 1006.0 mb
sky: a few clouds at 3500 feet
METAR: LEAL 041430Z 29019G31KT 250V320 9999 FEW035 17/M00 Q1006 NOSIG

Google
{'current_conditions': ''}