Metar
station: LEAL
type: routine report, cycle 22 (automatic report)
time: Mon May  3 22:30:00 2010
temperature: 14.0 C
dew point: 6.0 C
wind: W to NNW at 7 knots
visibility: greater than 10000 meters
pressure: 1009.0 mb
sky: scattered clouds at 3500 feet
METAR: LEAL 032230Z 29007KT 260V330 9999 SCT035 14/06 Q1009 NOSIG

Google
{'current_conditions': ''}