Metar
station: LEAL
type: routine report, cycle 12 (automatic report)
time: Mon May  3 11:54:00 2010
temperature: 12.0 C
dew point: 10.0 C
wind: W to N at 21 knots
visibility: 2000 meters
pressure: 1006.0 mb
weather: heavy thunderstorm with rain and hail
sky: a few clouds at 1200 feet
     broken clouds at 1600 feet
     a few cumulonimbus at 2000 feet
METAR: LEAL 031154Z 31021KT 280V350 2000 +TSRAGR FEW012 BKN016 FEW020CB 12/10 Q1006 NOSIG

Google
{'current_conditions': ''}