Metar
station: LEAL
type: routine report, cycle 4 (automatic report)
time: Sun May  2 04:30:00 2010
temperature: 15.0 C
dew point: 14.0 C
wind: WNW at 3 knots
visibility: 8000 meters
pressure: 1012.0 mb
sky: clearclouds at None
METAR: LEAL 020430Z 29003KT 8000 NSC 15/14 Q1012 NOSIG

Google
{'current_conditions': ''}