Metar
station: LEAL
type: routine report, cycle 15 (automatic report)
time: Mon May  3 15:30:00 2010
temperature: 16.0 C
dew point: 12.0 C
wind: NW to E at 4 knots
visibility: greater than 10000 meters
pressure: 1005.0 mb
sky: a few clouds at 2000 feet
     broken clouds at 3000 feet
METAR: LEAL 031530Z 05004KT 310V090 9999 FEW020 BKN030 16/12 Q1005 NOSIG

Google
{'current_conditions': ''}