Metar
station: LEAL
type: routine report, cycle 5 (automatic report)
time: Sun May  2 05:30:00 2010
temperature: 14.0 C
dew point: 14.0 C
wind: variable at 2 knots
visibility: 7000 meters
pressure: 1012.0 mb
sky: clearclouds at None
METAR: LEAL 020530Z VRB02KT 7000 NSC 14/14 Q1012 NOSIG

Google
{'current_conditions': ''}