Metar
station: LEAL
type: routine report, cycle 10 (automatic report)
time: Tue May  4 10:00:00 2010
temperature: 15.0 C
dew point: 1.0 C
wind: W to NNW at 16 knots, gusting to 26 knots
visibility: greater than 10000 meters
pressure: 1005.0 mb
sky: a few clouds at 3500 feet
METAR: LEAL 041000Z 31016G26KT 260V340 9999 FEW035 15/01 Q1005 NOSIG

Google
{'current_conditions': ''}