Metar
station: LEAL
type: routine report, cycle 7 (automatic report)
time: Sun May  2 07:30:00 2010
temperature: 20.0 C
dew point: 17.0 C
wind: variable at 2 knots
visibility: 7000 meters
pressure: 1014.0 mb
sky: a few clouds at 1000 feet
METAR: LEAL 020730Z VRB02KT 7000 FEW010 20/17 Q1014 NOSIG

Google
{'current_conditions': ''}