Metar
station: LEAL
type: routine report, cycle 11 (automatic report)
time: Sun May  2 11:30:00 2010
temperature: 22.0 C
dew point: 16.0 C
wind: ENE to SE at 9 knots
visibility: greater than 10000 meters
pressure: 1013.0 mb
sky: a few clouds at 1800 feet
METAR: LEAL 021130Z 10009KT 060V140 9999 FEW018 22/16 Q1013 NOSIG

Google
{'current_conditions': ''}