Metar
station: GCTS
type: routine report, cycle 13 (automatic report)
time: Tue May  4 13:30:00 2010
temperature: 22.0 C
dew point: 12.0 C
wind: E at 20 knots
visibility: greater than 10000 meters
pressure: 1017.0 mb
sky: a few clouds at 3500 feet
METAR: GCTS 041330Z 09020KT 9999 FEW035 22/12 Q1017 NOSIG

Google
{'current_conditions': ''}