Metar
station: GCTS
type: routine report, cycle 3 (automatic report)
time: Sun May  2 03:30:00 2010
temperature: 19.0 C
dew point: 13.0 C
wind: N to ENE at 5 knots
visibility: greater than 10000 meters
pressure: 1015.0 mb
sky: a few clouds at 2500 feet
METAR: GCTS 020330Z 03005KT 360V060 9999 FEW025 19/13 Q1015 NOSIG

Google
{'current_conditions': ''}