Metar
station: GCTS
type: routine report, cycle 15 (automatic report)
time: Mon May  3 15:30:00 2010
temperature: 23.0 C
dew point: 12.0 C
wind: E at 20 knots
visibility: greater than 10000 meters
pressure: 1017.0 mb
sky: a few clouds at 3000 feet
METAR: GCTS 031530Z 08020KT 9999 FEW030 23/12 Q1017 NOSIG

Google
{'current_conditions': ''}