Metar
station: GCRR
type: routine report, cycle 11 (automatic report)
time: Sun May  2 11:30:00 2010
temperature: 23.0 C
dew point: 14.0 C
wind: NNW to NE at 17 knots
visibility: greater than 10000 meters
pressure: 1016.0 mb
sky: scattered clouds at 2500 feet
METAR: GCRR 021130Z 01017KT 330V050 9999 SCT025 23/14 Q1016

Google
{'current_conditions': ''}