Metar
station: LEBG
type: routine report, cycle 14 (automatic report)
time: Tue May  4 14:00:00 2010
temperature: 4.0 C
dew point: 1.0 C
wind: N at 19 knots, gusting to 29 knots
visibility: 8000 meters
pressure: 1015.0 mb
sky: broken clouds at 1400 feet
METAR: LEBG 041400Z 36019G29KT 8000 BKN014 04/01 Q1015

Google
{'current_conditions': ''}