Metar
station: LEBG
type: routine report, cycle 18 (automatic report)
time: Mon May  3 18:00:00 2010
temperature: 5.0 C
dew point: 2.0 C
wind: N to NE at 16 knots
visibility: greater than 10000 meters
pressure: 1016.0 mb
sky: broken clouds at 2200 feet
METAR: LEBG 031800Z 02016KT 350V050 9999 BKN022 05/02 Q1016

Google
{'current_conditions': ''}