Metar
station: LERI
type: routine report, cycle 10 (automatic report)
time: Sun May  2 10:00:00 2010
temperature: 24.0 C
dew point: 13.0 C
wind: variable at 1 knots
visibility: 7000 meters
pressure: 1014.0 mb
sky: scattered clouds at 2000 feet
METAR: LERI 021000Z VRB01KT 7000 SCT020 24/13 Q1014 NOSIG

Google
{'current_conditions': ''}