Metar
station: LERI
type: routine report, cycle 14 (automatic report)
time: Tue May  4 14:00:00 2010
temperature: 16.0 C
dew point: -2.0 C
wind: WNW to NNE at 14 knots
visibility: greater than 10000 meters
pressure: 1008.0 mb
sky: a few clouds at 5000 feet
     scattered clouds at 7000 feet
     broken clouds at 10000 feet
METAR: LERI 041400Z 34014KT 290V030 9999 FEW050 SCT070 BKN100 16/M02 Q1008 NOSIG

Google
{'current_conditions': ''}