Metar
station: LERI
type: routine report, cycle 7 (automatic report)
time: Sun May  2 07:00:00 2010
temperature: 17.0 C
dew point: 16.0 C
wind: calm
visibility: 2000 meters
pressure: 1013.0 mb
weather: mist
sky: a few clouds at 1300 feet
METAR: LERI 020700Z 00000KT 2000 BR FEW013 17/16 Q1013 NOSIG

Google
{'current_conditions': ''}