Metar
station: LERI
type: routine report, cycle 6 (automatic report)
time: Sun May  2 06:00:00 2010
temperature: 14.0 C
dew point: 14.0 C
wind: variable at 1 knots
visibility: 2000 meters
pressure: 1013.0 mb
weather: mist
sky: a few clouds at 600 feet
     broken clouds at 1100 feet
METAR: LERI 020600Z VRB01KT 2000 BR FEW006 BKN011 14/14 Q1013 NOSIG

Google
{'current_conditions': ''}