Metar
station: LERI
type: routine report, cycle 8 (automatic report)
time: Sun May  2 08:00:00 2010
temperature: 19.0 C
dew point: 14.0 C
wind: variable at 1 knots
visibility: 7000 meters; 3000 meters to SE
pressure: 1014.0 mb
weather: mist
sky: scattered clouds at 1000 feet
METAR: LERI 020800Z VRB01KT 7000 3000SE BR SCT010 19/14 Q1014 NOSIG

Google
{'current_conditions': ''}