Metar
station: LERI
type: routine report, cycle 18 (automatic report)
time: Sat May  1 18:00:00 2010
temperature: 21.0 C
dew point: 16.0 C
wind: NNE to E at 4 knots
visibility: 8000 meters
pressure: 1010.0 mb
sky: a few clouds at 2000 feet
     scattered clouds at 10000 feet
METAR: LERI 011800Z 08004KT 030V100 8000 FEW020 SCT100 21/16 Q1010 NOSIG

Google
{'current_conditions': ''}