Metar
station: LERI
type: routine report, cycle 18 (automatic report)
time: Sun May  2 18:00:00 2010
temperature: 21.0 C
dew point: 11.0 C
wind: E to SSW at 5 knots
visibility: greater than 10000 meters
pressure: 1010.0 mb
sky: a few clouds at 2500 feet
METAR: LERI 021800Z 15005KT 090V200 9999 FEW025 21/11 Q1010 NOSIG

Google
{'current_conditions': ''}