Metar
station: GCLP
type: routine report, cycle 1 (automatic report)
time: Sun May  2 01:30:00 2010
temperature: 20.0 C
dew point: 13.0 C
wind: N at 24 knots
visibility: greater than 10000 meters
pressure: 1016.0 mb
sky: broken clouds at 2500 feet
METAR: GCLP 020130Z 01024KT 9999 BKN025 20/13 Q1016 NOSIG

Google
{'current_conditions': ''}