Metar
station: GCLP
type: routine report, cycle 14 (automatic report)
time: Sun May  2 14:30:00 2010
temperature: 24.0 C
dew point: 14.0 C
wind: NNE at 26 knots
visibility: greater than 10000 meters
pressure: 1016.0 mb
sky: a few clouds at 2500 feet
METAR: GCLP 021430Z 03026KT 9999 FEW025 24/14 Q1016 NOSIG

Google
{'current_conditions': ''}