Metar
station: LEZG
type: routine report, cycle 10 (automatic report)
time: Tue May  4 10:00:00 2010
temperature: 9.0 C
dew point: -0.0 C
wind: WNW to N at 32 knots, gusting to 52 knots
visibility: greater than 10000 meters
pressure: 1006.0 mb
sky: scattered clouds at 4000 feet
     scattered clouds at 8500 feet
METAR: LEZG 041000Z 31032G52KT 290V360 9999 SCT040 SCT085 09/M00 Q1006

Google
{'current_conditions': ''}