Metar
station: LEZG
type: routine report, cycle 8 (automatic report)
time: Sun May  2 08:00:00 2010
temperature: 14.0 C
dew point: 8.0 C
wind: WNW at 8 knots
visibility: greater than 10000 meters
pressure: 1015.0 mb
sky: a few clouds at 3500 feet
METAR: LEZG 020800Z 30008KT 9999 FEW035 14/08 Q1015

Google
{'current_conditions': ''}