Metar
station: LEZG
type: routine report, cycle 13 (automatic report)
time: Tue May  4 13:30:00 2010
temperature: 9.0 C
dew point: 2.0 C
wind: NW at 37 knots, gusting to 54 knots
visibility: greater than 10000 meters
pressure: 1007.0 mb
sky: scattered clouds at 3200 feet
     scattered clouds at 7000 feet
METAR: LEZG 041330Z 32037G54KT 9999 SCT032 SCT070 09/02 Q1007

Google
{'current_conditions': ''}