Metar
station: GCLA
type: routine report, cycle 8 (automatic report)
time: Tue May  4 08:30:00 2010
temperature: 19.0 C
dew point: 13.0 C
wind: NNW to ENE at 8 knots
visibility: greater than 10000 meters
pressure: 1019.0 mb
sky: a few clouds at 2600 feet
     broken clouds at 3700 feet
METAR: GCLA 040830Z 02008KT 340V070 9999 FEW026 BKN037 19/13 Q1019

Google
{'current_conditions': ''}