Metar
station: GCLA
type: routine report, cycle 10 (automatic report)
time: Tue May  4 10:30:00 2010
temperature: 20.0 C
dew point: 12.0 C
wind: N to NE at 9 knots
visibility: greater than 10000 meters
pressure: 1019.0 mb
sky: broken clouds at 3200 feet
METAR: GCLA 041030Z 02009KT 350V050 9999 BKN032 20/12 Q1019

Google
{'current_conditions': ''}