Metar
station: LEMH
type: routine report, cycle 16 (automatic report)
time: Mon May  3 16:00:00 2010
temperature: 17.0 C
dew point: 16.0 C
wind: ENE to SE at 14 knots
visibility: 9000 meters
pressure: 1001.0 mb
sky: broken clouds at 600 feet
METAR: LEMH 031600Z 10014KT 070V140 9000 BKN006 17/16 Q1001

Google
{'current_conditions': ''}