Metar
station: LEMH
type: routine report, cycle 22 (automatic report)
time: Mon May  3 22:30:00 2010
temperature: 15.0 C
dew point: 14.0 C
wind: S to WSW at 12 knots
visibility: greater than 10000 meters
pressure: 996.0 mb
sky: scattered clouds at 700 feet
     broken clouds at 1200 feet
METAR: LEMH 032230Z 21012KT 170V240 9999 SCT007 BKN012 15/14 Q0996

Google
{'current_conditions': ''}