Metar
station: LEMH
type: routine report, cycle 8 (automatic report)
time: Sun May  2 08:30:00 2010
temperature: 18.0 C
dew point: 15.0 C
wind: NNW to NE at 11 knots
visibility: greater than 10000 meters
pressure: 1013.0 mb
sky: a few clouds at 1300 feet
     scattered clouds at 2000 feet
METAR: LEMH 020830Z 01011KT 340V050 9999 FEW013 SCT020 18/15 Q1013

Google
{'current_conditions': ''}