Metar
station: LEMH
type: routine report (automatic report)
time: Tue May  4 00:00:00 2010
temperature: 15.0 C
dew point: 14.0 C
wind: S to WSW at 14 knots
visibility: greater than 10000 meters
pressure: 994.0 mb
sky: scattered clouds at 600 feet
METAR: LEMH 040000Z 21014KT 170V240 9999 SCT006 15/14 Q0994

Google
{'current_conditions': ''}