Metar
station: LEMH
type: routine report, cycle 19 (automatic report)
time: Mon May  3 19:00:00 2010
temperature: 17.0 C
dew point: 17.0 C
wind: SSE at 13 knots
visibility: 7000 meters
pressure: 999.0 mb
sky: scattered clouds at 300 feet
     broken clouds at 500 feet
METAR: LEMH 031900Z 15013KT 7000 SCT003 BKN005 17/17 Q0999

Google
{'current_conditions': ''}