Metar
station: LEMH
type: routine report, cycle 12 (automatic report)
time: Tue May  4 12:30:00 2010
temperature: 14.0 C
dew point: 9.0 C
wind: SSW to WNW at 7 knots
visibility: greater than 10000 meters
pressure: 1003.0 mb
sky: a few clouds at 2000 feet
     scattered clouds at 3600 feet
METAR: LEMH 041230Z 25007KT 210V300 9999 FEW020 SCT036 14/09 Q1003

Google
{'current_conditions': ''}