Metar
station: LEMH
type: routine report, cycle 14 (automatic report)
time: Mon May  3 14:30:00 2010
temperature: 16.0 C
dew point: 15.0 C
wind: E at 10 knots
visibility: 8000 meters
pressure: 1003.0 mb
weather: light rain
sky: broken clouds at 700 feet
METAR: LEMH 031430Z 08010KT 8000 -RA BKN007 16/15 Q1003

Google
{'current_conditions': ''}