Metar
station: LEMH
type: routine report, cycle 20 (automatic report)
time: Mon May  3 20:30:00 2010
temperature: 17.0 C
dew point: 16.0 C
wind: SSE at 14 knots
visibility: greater than 10000 meters
pressure: 997.0 mb
sky: a few clouds at 1100 feet
     scattered clouds at 1500 feet
     broken clouds at 3000 feet
METAR: LEMH 032030Z 15014KT 9999 FEW011 SCT015 BKN030 17/16 Q0997

Google
{'current_conditions': ''}