Metar
station: LEMH
type: routine report, cycle 10 (automatic report)
time: Tue May  4 10:30:00 2010
temperature: 12.0 C
dew point: 9.0 C
wind: SW to WNW at 9 knots
visibility: greater than 10000 meters
pressure: 1003.0 mb
sky: a few clouds at 2000 feet
     scattered clouds at 4400 feet
METAR: LEMH 041030Z 25009KT 220V300 9999 FEW020 SCT044 12/09 Q1003

Google
{'current_conditions': ''}