Metar
station: LEMH
type: routine report, cycle 13 (automatic report)
time: Tue May  4 13:30:00 2010
temperature: 14.0 C
dew point: 9.0 C
wind: S to W at 7 knots
visibility: greater than 10000 meters
pressure: 1004.0 mb
sky: a few clouds at 2000 feet
     scattered clouds at 4500 feet
METAR: LEMH 041330Z 24007KT 170V280 9999 FEW020 SCT045 14/09 Q1004

Google
{'current_conditions': ''}