Metar
station: LELO
type: routine report, cycle 22 (automatic report)
time: Mon May  3 22:00:00 2010
temperature: 7.0 C
dew point: 3.0 C
wind: S to NNW at 8 knots, gusting to 18 knots
visibility: greater than 10000 meters
pressure: 1016.0 mb
sky: broken clouds at 3700 feet
METAR: LELO 032200Z 28008G18KT 190V340 9999 BKN037 07/03 Q1016

Google
{'current_conditions': ''}