Metar
station: LELO
type: routine report (automatic report)
time: Tue May  4 00:00:00 2010
temperature: 7.0 C
dew point: 4.0 C
wind: SW to NNW at 9 knots, gusting to 19 knots
visibility: greater than 10000 meters
pressure: 1015.0 mb
sky: broken clouds at 3700 feet
METAR: LELO 040000Z 27009G19KT 220V330 9999 BKN037 07/04 Q1015

Google
{'current_conditions': ''}