Metar
station: LELO
type: routine report, cycle 14 (automatic report)
time: Sun May  2 14:30:00 2010
temperature: 13.0 C
dew point: 7.0 C
wind: variable at 1 knots
visibility: greater than 10000 meters
pressure: 1015.0 mb
sky: a few clouds at 2500 feet
     broken clouds at 4000 feet
METAR: LELO 021430Z VRB01KT 9999 FEW025 BKN040 13/07 Q1015

Google
{'current_conditions': ''}