Metar
station: LEVC
type: routine report, cycle 4 (automatic report)
time: Sun May  2 04:30:00 2010
temperature: 14.0 C
dew point: 13.0 C
wind: NW at 5 knots
visibility: 10000 meters
pressure: 1012.0 mb
METAR: LEVC 020430Z 32005KT CAVOK 14/13 Q1012 NOSIG

Google
{'current_conditions': ''}