Metar
station: LEVC
type: routine report, cycle 22 (automatic report)
time: Mon May  3 22:30:00 2010
temperature: 12.0 C
dew point: 7.0 C
wind: WSW to NW at 8 knots, gusting to 20 knots
visibility: greater than 10000 meters
pressure: 1008.0 mb
sky: scattered clouds at 4500 feet
METAR: LEVC 032230Z 28008G20KT 250V310 9999 SCT045 12/07 Q1008 NOSIG

Google
{'current_conditions': ''}