Metar
station: LEVC
type: routine report, cycle 1 (automatic report)
time: Sun May  2 01:30:00 2010
temperature: 15.0 C
dew point: 15.0 C
wind: NW at 4 knots
visibility: 8000 meters
pressure: 1013.0 mb
sky: clearclouds at None
METAR: LEVC 020130Z 31004KT 8000 NSC 15/15 Q1013 NOSIG

Google
{'current_conditions': ''}