Metar
station: LEVC
type: routine report, cycle 2 (automatic report)
time: Sun May  2 02:30:00 2010
temperature: 14.0 C
dew point: 14.0 C
wind: WNW at 3 knots
visibility: 8000 meters
pressure: 1013.0 mb
sky: clearclouds at None
METAR: LEVC 020230Z 29003KT 8000 NSC 14/14 Q1013 NOSIG

Google
{'current_conditions': ''}