Metar
station: LEVC
type: routine report, cycle 19 (automatic report)
time: Sun May  2 19:30:00 2010
temperature: 19.0 C
dew point: 16.0 C
wind: ENE at 8 knots
visibility: 9000 meters
pressure: 1011.0 mb
sky: scattered clouds at 1500 feet
     scattered clouds at 5500 feet
METAR: LEVC 021930Z 06008KT 9000 SCT015 SCT055 19/16 Q1011 NOSIG

Google
{'current_conditions': ''}