Metar
station: LEVC
type: routine report, cycle 11 (automatic report)
time: Sun May  2 11:30:00 2010
temperature: 23.0 C
dew point: 12.0 C
wind: SE at 10 knots
visibility: greater than 10000 meters
pressure: 1013.0 mb
sky: a few clouds at 3000 feet
METAR: LEVC 021130Z 13010KT 9999 FEW030 23/12 Q1013 NOSIG

Google
{'current_conditions': ''}