Metar
station: LEPP
type: routine report, cycle 20 (automatic report)
time: Mon May  3 20:30:00 2010
temperature: 5.0 C
dew point: 3.0 C
wind: WNW to N at 12 knots, gusting to 23 knots
visibility: 5000 meters
pressure: 1014.0 mb
weather: light rain
sky: a few clouds at 1800 feet
     scattered clouds at 2500 feet
     broken clouds at 3000 feet
METAR: LEPP 032030Z 33012G23KT 290V010 5000 -RA FEW018 SCT025 BKN030 05/03 Q1014

Google
{'current_conditions': ''}