Metar
station: LEPP
type: routine report, cycle 8 (automatic report)
time: Sun May  2 08:02:00 2010
temperature: 10.0 C
dew point: 8.0 C
wind: WNW to NNE at 6 knots
visibility: greater than 10000 meters
pressure: 1016.0 mb
sky: broken clouds at 1800 feet
     overcast at 3000 feet
METAR: LEPP 020802Z 32006KT 290V020 9999 BKN018 OVC030 10/08 Q1016

Google
{'current_conditions': ''}