Metar
station: LEPP
type: routine report, cycle 14 (automatic report)
time: Mon May  3 14:30:00 2010
temperature: 9.0 C
dew point: 6.0 C
wind: NNW to NNE at 18 knots, gusting to 28 knots
visibility: 9000 meters
pressure: 1012.0 mb
sky: a few clouds at 1800 feet
     scattered clouds at 2200 feet
     broken clouds at 3500 feet
METAR: LEPP 031430Z 36018G28KT 330V030 9000 FEW018 SCT022 BKN035 09/06 Q1012

Google
{'current_conditions': ''}