Metar
station: LEPP
type: routine report, cycle 11 (automatic report)
time: Sun May  2 11:30:00 2010
temperature: 11.0 C
dew point: 6.0 C
wind: NW to NNE at 9 knots
visibility: greater than 10000 meters
pressure: 1016.0 mb
sky: a few clouds at 2200 feet
     broken clouds at 3700 feet
METAR: LEPP 021130Z 35009KT 320V020 9999 FEW022 BKN037 11/06 Q1016

Google
{'current_conditions': ''}