Metar
station: LEPP
type: routine report, cycle 20 (automatic report)
time: Mon May  3 20:00:00 2010
temperature: 5.0 C
dew point: 3.0 C
wind: WNW to N at 10 knots
visibility: 9000 meters
pressure: 1014.0 mb
sky: a few clouds at 1800 feet
     scattered clouds at 2500 feet
     broken clouds at 3500 feet
METAR: LEPP 032000Z 33010KT 290V350 9000 FEW018 SCT025 BKN035 05/03 Q1014

Google
{'current_conditions': ''}