Metar
station: LETO
type: routine report, cycle 14 (automatic report)
time: Sun May  2 14:40:00 2010
temperature: 19.0 C
dew point: 11.0 C
wind: WNW at 3 knots
visibility: greater than 10000 meters
pressure: 1011.0 mb
weather: light rain
sky: broken clouds at 5000 feet
METAR: LETO 021440Z 30003KT 9999 -RA BKN050 19/11 Q1011 NOSIG

Google
{'current_conditions': ''}