Metar
station: LETO
type: routine report, cycle 22 (automatic report)
time: Mon May  3 22:00:00 2010
temperature: 8.0 C
dew point: -2.0 C
wind: NW to NNE at 17 knots
visibility: greater than 10000 meters
pressure: 1014.0 mb
sky: a few clouds at 5500 feet
METAR: LETO 032200Z 35017KT 320V020 9999 FEW055 08/M02 Q1014 NOSIG

Google
{'current_conditions': ''}