Metar
station: LETO
type: routine report, cycle 10 (automatic report)
time: Tue May  4 10:00:00 2010
temperature: 9.0 C
dew point: -2.0 C
wind: NNW at 28 knots
visibility: greater than 10000 meters
pressure: 1011.0 mb
sky: broken clouds at 5000 feet
METAR: LETO 041000Z 34028KT 9999 BKN050 09/M02 Q1011 TEMPO 34030G40KT

Google
{'current_conditions': ''}