Metar
station: LETO
type: routine report (automatic report)
time: Tue May  4 00:00:00 2010
temperature: 5.0 C
dew point: -1.0 C
wind: NNW at 14 knots
visibility: 10000 meters
pressure: 1014.0 mb
METAR: LETO 040000Z 34014KT CAVOK 05/M01 Q1014 NOSIG

Google
{'current_conditions': ''}