Metar
station: LETO
type: routine report, cycle 2 (automatic report)
time: Sun May  2 02:00:00 2010
temperature: 9.0 C
dew point: 7.0 C
wind: N at 3 knots
visibility: 10000 meters
pressure: 1015.0 mb
METAR: LETO 020200Z 36003KT CAVOK 09/07 Q1015 NOSIG

Google
{'current_conditions': ''}