Metar
station: LETO
type: routine report, cycle 14 (automatic report)
time: Mon May  3 14:00:00 2010
temperature: 14.0 C
dew point: 1.0 C
wind: NW to N at 24 knots, gusting to 35 knots
visibility: greater than 10000 meters
pressure: 1010.0 mb
sky: a few clouds at 3000 feet
     scattered clouds at 6000 feet
METAR: LETO 031400Z 34024G35KT 310V010 9999 FEW030 SCT060 14/01 Q1010 NOSIG

Google
{'current_conditions': ''}