Metar
station: LETO
type: routine report, cycle 4 (automatic report)
time: Sun May  2 04:00:00 2010
temperature: 9.0 C
dew point: 7.0 C
wind: NNE at 4 knots
visibility: 10000 meters
pressure: 1014.0 mb
METAR: LETO 020400Z 03004KT CAVOK 09/07 Q1014 NOSIG

Google
{'current_conditions': ''}