Metar
station: LEGA
type: routine report, cycle 7 (automatic report)
time: Sun May  2 07:00:00 2010
temperature: 14.0 C
dew point: 11.0 C
wind: calm
visibility: 10000 meters
pressure: 1016.0 mb
METAR: LEGA 020700Z 00000KT CAVOK 14/11 Q1016

Google
{'current_conditions': ''}