Metar
station: LESO
type: routine report, cycle 19 (automatic report)
time: Mon May  3 19:30:00 2010
temperature: 10.0 C
dew point: 6.0 C
wind: WSW to N at 11 knots, gusting to 21 knots
visibility: 8000 meters
pressure: 1017.0 mb
weather: light rain
sky: scattered clouds at 2000 feet
     broken clouds at 3000 feet
     broken clouds at 5000 feet
METAR: LESO 031930Z 31011G21KT 250V010 8000 -RA SCT020 BKN030 BKN050 10/06 Q1017

Google
{'current_conditions': ''}