Metar
station: LESO
type: routine report, cycle 13 (automatic report)
time: Tue May  4 13:30:00 2010
temperature: 10.0 C
dew point: 4.0 C
wind: WNW to ENE at 16 knots, gusting to 27 knots
visibility: greater than 10000 meters
pressure: 1016.0 mb
sky: broken clouds at 3500 feet
METAR: LESO 041330Z 36016G27KT 300V060 9999 BKN035 10/04 Q1016

Google
{'current_conditions': ''}