Metar
station: LEBA
type: routine report, cycle 13 (automatic report)
time: Tue May  4 13:00:00 2010
temperature: 19.0 C
dew point: -2.0 C
wind: WNW to NE at 9 knots
visibility: greater than 10000 meters
pressure: 1012.0 mb
sky: a few clouds at 3000 feet
     scattered clouds at 7000 feet
METAR: LEBA 041300Z 35009KT 290V050 9999 FEW030 SCT070 19/M02 Q1012

Google
{'current_conditions': ''}