Metar
station: LEBA
type: routine report, cycle 14 (automatic report)
time: Tue May  4 14:00:00 2010
temperature: 19.0 C
dew point: -2.0 C
wind: NNW to NE at 12 knots
visibility: greater than 10000 meters
pressure: 1012.0 mb
sky: a few clouds at 3000 feet
     scattered clouds at 8000 feet
METAR: LEBA 041400Z 36012KT 330V050 9999 FEW030 SCT080 19/M02 Q1012

Google
{'current_conditions': ''}