Metar
station: LEVS
type: routine report, cycle 14 (automatic report)
time: Mon May  3 14:30:00 2010
temperature: 13.0 C
dew point: 0.0 C
wind: variable at 14 knots, gusting to 29 knots
visibility: greater than 10000 meters
pressure: 1011.0 mb
sky: a few clouds at 3000 feet
     a few towering cumulus at 4500 feet
METAR: LEVS 031430Z VRB14G29KT 9999 FEW030 FEW045TCU 13/00 Q1011

Google
{'current_conditions': ''}