Metar
station: LEVS
type: routine report, cycle 8 (automatic report)
time: Tue May  4 08:30:00 2010
temperature: 9.0 C
dew point: -1.0 C
wind: W to NE at 11 knots
visibility: greater than 10000 meters
pressure: 1011.0 mb
sky: scattered clouds at 5000 feet
METAR: LEVS 040830Z 35011KT 280V050 9999 SCT050 09/M01 Q1011

Google
{'current_conditions': ''}