Metar
station: LEVS
type: routine report, cycle 12 (automatic report)
time: Mon May  3 12:30:00 2010
temperature: 14.0 C
dew point: 1.0 C
wind: WNW to ENE at 14 knots, gusting to 25 knots
visibility: greater than 10000 meters
pressure: 1011.0 mb
sky: a few clouds at 2000 feet
     a few towering cumulus at 4500 feet
     scattered clouds at 5000 feet
METAR: LEVS 031230Z 35014G25KT 300V070 9999 FEW020 FEW045TCU SCT050 14/01 Q1011 WS ALL RWY

Google
{'current_conditions': ''}