Metar
station: LEVS
type: routine report, cycle 5 (automatic report)
time: Sun May  2 05:30:00 2010
temperature: 10.0 C
dew point: 7.0 C
wind: NW to NE at 4 knots
visibility: 9000 meters
pressure: 1014.0 mb
sky: clearclouds at None
METAR: LEVS 020530Z 36004KT 320V050 9000 NSC 10/07 Q1014

Google
{'current_conditions': ''}