Metar
station: LEVS
type: routine report, cycle 11 (automatic report)
time: Sun May  2 11:30:00 2010
temperature: 21.0 C
dew point: 9.0 C
wind: SSE to WNW at 6 knots
visibility: greater than 10000 meters
pressure: 1013.0 mb
sky: scattered clouds at 4500 feet
METAR: LEVS 021130Z 22006KT 160V290 9999 SCT045 21/09 Q1013

Google
{'current_conditions': ''}