Metar
station: LEGT
type: routine report, cycle 14 (automatic report)
time: Sun May  2 14:00:00 2010
temperature: 23.0 C
dew point: 7.0 C
wind: W at 9 knots
visibility: greater than 10000 meters
pressure: 1011.0 mb
sky: scattered clouds at 4000 feet
METAR: LEGT 021400Z 26009KT 9999 SCT040 23/07 Q1011

Google
{'current_conditions': ''}