Metar
station: LEGT
type: routine report, cycle 12 (automatic report)
time: Tue May  4 12:00:00 2010
temperature: 12.0 C
dew point: -1.0 C
wind: NNE at 23 knots, gusting to 37 knots
visibility: greater than 10000 meters
pressure: 1012.0 mb
sky: a few clouds at 4500 feet
METAR: LEGT 041200Z 03023G37KT 9999 FEW045 12/M01 Q1012

Google
{'current_conditions': ''}