Metar
station: LECO
type: routine report, cycle 21 (automatic report)
time: Mon May  3 21:30:00 2010
temperature: 10.0 C
dew point: 6.0 C
wind: N to NE at 7 knots
visibility: greater than 10000 meters
pressure: 1025.0 mb
sky: a few clouds at 3000 feet
METAR: LECO 032130Z 02007KT 350V050 9999 FEW030 10/06 Q1025

Google
{'current_conditions': ''}