Metar
station: LECO
type: routine report, cycle 10 (automatic report)
time: Tue May  4 10:30:00 2010
temperature: 13.0 C
dew point: 3.0 C
wind: NNE to E at 17 knots, gusting to 27 knots
visibility: greater than 10000 meters
pressure: 1024.0 mb
sky: a few clouds at 2500 feet
     scattered clouds at 3000 feet
METAR: LECO 041030Z 06017G27KT 030V100 9999 FEW025 SCT030 13/03 Q1024

Google
{'current_conditions': ''}