Metar
station: LEJR
type: routine report, cycle 3 (automatic report)
time: Sun May  2 03:00:00 2010
temperature: 14.0 C
dew point: 13.0 C
wind: calm
visibility: 10000 meters
pressure: 1014.0 mb
METAR: LEJR 020300Z 00000KT CAVOK 14/13 Q1014

Google
{'current_conditions': ''}