Metar
station: LEJR
type: routine report, cycle 9 (automatic report)
time: Tue May  4 09:00:00 2010
temperature: 16.0 C
dew point: 1.0 C
wind: NNE at 16 knots
visibility: greater than 10000 meters
pressure: 1013.0 mb
sky: a few clouds at 5000 feet
METAR: LEJR 040900Z 02016KT 9999 FEW050 16/01 Q1013

Google
{'current_conditions': ''}