Metar
station: LEJR
type: routine report, cycle 15 (automatic report)
time: Sun May  2 15:00:00 2010
temperature: 24.0 C
dew point: 10.0 C
wind: WSW to WNW at 10 knots
visibility: greater than 10000 meters
pressure: 1012.0 mb
sky: a few clouds at 4500 feet
METAR: LEJR 021500Z 27010KT 240V300 9999 FEW045 24/10 Q1012

Google
{'current_conditions': ''}