Metar
station: LEGR
type: routine report, cycle 18 (automatic report)
time: Mon May  3 18:30:00 2010
temperature: 17.0 C
dew point: -1.0 C
wind: NNW to NNE at 9 knots, gusting to 20 knots
visibility: greater than 10000 meters
pressure: 1011.0 mb
sky: a few clouds at 7500 feet
METAR: LEGR 031830Z 36009G20KT 330V030 9999 FEW075 17/M01 Q1011

Google
{'current_conditions': ''}