Metar
station: LEGR
type: routine report, cycle 11 (automatic report)
time: Sun May  2 11:30:00 2010
temperature: 22.0 C
dew point: 8.0 C
wind: variable at 3 knots
visibility: greater than 10000 meters
pressure: 1013.0 mb
sky: a few clouds at 6000 feet
METAR: LEGR 021130Z VRB03KT 9999 FEW060 22/08 Q1013

Google
{'current_conditions': ''}