Metar
station: LEGR
type: routine report, cycle 14 (automatic report)
time: Mon May  3 14:30:00 2010
temperature: 20.0 C
dew point: 1.0 C
wind: WNW to NNE at 17 knots, gusting to 27 knots
visibility: greater than 10000 meters
pressure: 1009.0 mb
sky: scattered clouds at 6000 feet
METAR: LEGR 031430Z 34017G27KT 300V020 9999 SCT060 20/01 Q1009

Google
{'current_conditions': ''}