Metar
station: LEGR
type: routine report, cycle 12 (automatic report)
time: Tue May  4 12:30:00 2010
temperature: 14.0 C
dew point: -2.0 C
wind: WNW to NNE at 12 knots
visibility: greater than 10000 meters
pressure: 1010.0 mb
sky: scattered clouds at 6500 feet
METAR: LEGR 041230Z 34012KT 290V030 9999 SCT065 14/M02 Q1010

Google
{'current_conditions': ''}