Metar
station: LEAM
type: routine report, cycle 12 (automatic report)
time: Tue May  4 12:30:00 2010
temperature: 19.0 C
dew point: 4.0 C
wind: SSE to SW at 12 knots
visibility: greater than 10000 meters
pressure: 1008.0 mb
sky: a few clouds at 3500 feet
METAR: LEAM 041230Z 19012KT 160V220 9999 FEW035 19/04 Q1008

Google
{'current_conditions': ''}