Metar
station: LEAM
type: routine report, cycle 7 (automatic report)
time: Sun May  2 07:30:00 2010
temperature: 18.0 C
dew point: 15.0 C
wind: E to SSE at 6 knots
visibility: 8000 meters
pressure: 1013.0 mb
sky: a few clouds at 1000 feet
METAR: LEAM 020730Z 12006KT 090V160 8000 FEW010 18/15 Q1013

Google
{'current_conditions': ''}