Metar
station: LEAM
type: routine report, cycle 4 (automatic report)
time: Sun May  2 04:30:00 2010
temperature: 15.0 C
dew point: 13.0 C
wind: variable at 1 knots
visibility: 10000 meters
pressure: 1012.0 mb
METAR: LEAM 020430Z VRB01KT CAVOK 15/13 Q1012

Google
{'current_conditions': ''}