Metar
station: LEAM
type: routine report, cycle 21 (automatic report)
time: Mon May  3 21:00:00 2010
temperature: 18.0 C
dew point: -1.0 C
wind: WNW to N at 11 knots
visibility: greater than 10000 meters
pressure: 1009.0 mb
sky: a few clouds at 2000 feet
     scattered clouds at 11000 feet
METAR: LEAM 032100Z 34011KT 300V010 9999 FEW020 SCT110 18/M01 Q1009

Google
{'current_conditions': ''}