Metar
station: LELC
type: routine report, cycle 10 (automatic report)
time: Sun May  2 10:00:00 2010
temperature: 21.0 C
dew point: 16.0 C
wind: NE to SE at 5 knots
visibility: 7000 meters
pressure: 1014.0 mb
sky: scattered clouds at 3000 feet
METAR: LELC 021000Z 09005KT 040V140 7000 SCT030 21/16 Q1014 NOSIG

Google
{'current_conditions': ''}