Metar
station: LELC
type: routine report, cycle 12 (automatic report)
time: Mon May  3 12:43:00 2010
temperature: 15.0 C
dew point: 12.0 C
wind: N at 15 knots
visibility: 9000 meters; 3000 meters to SW
pressure: 1005.0 mb
weather: thunderstorm; rain
sky: a few cumulonimbus at 2000 feet
     broken clouds at 5000 feet
METAR: LELC 031243Z 36015KT 9000 3000SW TS RA FEW020CB BKN050 15/12 Q1005

Google
{'current_conditions': ''}