Metar
station: LELC
type: routine report, cycle 13 (automatic report)
time: Mon May  3 13:00:00 2010
temperature: 14.0 C
dew point: 12.0 C
wind: N at 11 knots
visibility: 7000 meters; 3000 meters to SW
pressure: 1005.0 mb
weather: thunderstorm; rain
sky: a few cumulonimbus at 2000 feet
     broken clouds at 5000 feet
METAR: LELC 031300Z 36011KT 7000 3000SW TS RA FEW020CB BKN050 14/12 Q1005 BECMG NSW

Google
{'current_conditions': ''}