Metar
station: LEBB
type: routine report, cycle 15 (automatic report)
time: Mon May  3 15:30:00 2010
temperature: 8.0 C
dew point: 5.0 C
wind: NW to NNE at 16 knots, gusting to 27 knots
visibility: 7000 meters
pressure: 1018.0 mb
weather: light rain
sky: scattered clouds at 2500 feet
     broken clouds at 4500 feet
METAR: LEBB 031530Z 35016G27KT 320V030 7000 -RA SCT025 BKN045 08/05 Q1018 TEMPO 4000 TSRA SCT025CB

Google
{'current_conditions': ''}