Metar
station: LEBB
type: routine report, cycle 4 (automatic report)
time: Sun May  2 04:30:00 2010
temperature: 11.0 C
dew point: 10.0 C
wind: NE to ESE at 3 knots
visibility: 2000 meters
pressure: 1016.0 mb
weather: rain
sky: scattered clouds at 1500 feet
     broken clouds at 2000 feet
METAR: LEBB 020430Z 09003KT 040V110 2000 RA SCT015 BKN020 11/10 Q1016 TEMPO 4000 RA BKN014

Google
{'current_conditions': ''}