Metar
station: LEBB
type: routine report, cycle 7 (automatic report)
time: Sun May  2 07:30:00 2010
temperature: 12.0 C
dew point: 10.0 C
wind: SW to NW at 3 knots
visibility: greater than 10000 meters
pressure: 1017.0 mb
sky: a few clouds at 2000 feet
     broken clouds at 5000 feet
METAR: LEBB 020730Z 26003KT 230V310 9999 FEW020 BKN050 12/10 Q1017 TEMPO RA

Google
{'current_conditions': ''}