Metar
station: LEBB
type: routine report, cycle 18 (automatic report)
time: Mon May  3 18:30:00 2010
temperature: 10.0 C
dew point: 5.0 C
wind: WNW to NNE at 8 knots
visibility: 9000 meters
pressure: 1018.0 mb
weather: rain and hail showers
sky: scattered towering cumulus at 2500 feet
     broken clouds at 3500 feet
METAR: LEBB 031830Z 33008KT 290V020 9000 SHRAGR SCT025TCU BKN035 10/05 Q1018 TEMPO 4000 TSRA SCT025CB

Google
{'current_conditions': ''}