Metar
station: LEBB
type: routine report, cycle 21 (automatic report)
time: Mon May  3 21:30:00 2010
temperature: 7.0 C
dew point: 4.0 C
wind: NW to NNE at 9 knots
visibility: 9000 meters
pressure: 1020.0 mb
sky: scattered clouds at 2500 feet
     broken clouds at 4200 feet
METAR: LEBB 032130Z 34009KT 310V020 9000 SCT025 BKN042 07/04 Q1020 TEMPO 4000 TSRA SCT025CB

Google
{'current_conditions': ''}