Metar
station: LEST
type: routine report, cycle 19 (automatic report)
time: Sun May  2 19:30:00 2010
temperature: 10.0 C
dew point: 7.0 C
wind: NW to N at 7 knots
visibility: greater than 10000 meters
pressure: 1018.0 mb
sky: a few clouds at 2200 feet
     scattered clouds at 4500 feet
METAR: LEST 021930Z 34007KT 310V010 9999 FEW022 SCT045 10/07 Q1018 NOSIG

Google
{'current_conditions': ''}