Metar
station: LEST
type: routine report, cycle 20 (automatic report)
time: Mon May  3 20:30:00 2010
temperature: 7.0 C
dew point: 4.0 C
wind: NNW to ENE at 13 knots, gusting to 24 knots
visibility: greater than 10000 meters
pressure: 1023.0 mb
sky: a few clouds at 2000 feet
     scattered clouds at 3500 feet
METAR: LEST 032030Z 03013G24KT 340V070 9999 FEW020 SCT035 07/04 Q1023 NOSIG

Google
{'current_conditions': ''}