Metar
station: LEST
type: routine report, cycle 19 (automatic report)
time: Mon May  3 19:00:00 2010
temperature: 8.0 C
dew point: 5.0 C
wind: N at 11 knots
visibility: greater than 10000 meters
pressure: 1023.0 mb
weather: nearby showers
sky: a few clouds at 2000 feet
     scattered towering cumulus at 4000 feet
METAR: LEST 031900Z 01011KT 9999 VCSH FEW020 SCT040TCU 08/05 Q1023 NOSIG

Google
{'current_conditions': ''}