Metar
station: LEST
type: routine report, cycle 11 (automatic report)
time: Mon May  3 11:30:00 2010
temperature: 12.0 C
dew point: 6.0 C
wind: NNW to ENE at 11 knots, gusting to 21 knots
visibility: greater than 10000 meters
pressure: 1022.0 mb
sky: scattered clouds at 3000 feet
     scattered clouds at 4000 feet
METAR: LEST 031130Z 01011G21KT 340V060 9999 SCT030 SCT040 12/06 Q1022 NOSIG

Google
{'current_conditions': ''}