Metar
station: LEST
type: routine report, cycle 3 (automatic report)
time: Sun May  2 03:30:00 2010
temperature: 10.0 C
dew point: 8.0 C
wind: N at 5 knots
visibility: greater than 10000 meters
pressure: 1018.0 mb
sky: a few clouds at 1500 feet
     broken clouds at 3500 feet
METAR: LEST 020330Z 01005KT 9999 FEW015 BKN035 10/08 Q1018 NOSIG

Google
{'current_conditions': ''}