Metar
station: LEST
type: routine report, cycle 21 (automatic report)
time: Sun May  2 21:30:00 2010
temperature: 9.0 C
dew point: 7.0 C
wind: NW to N at 8 knots
visibility: greater than 10000 meters
pressure: 1019.0 mb
sky: scattered clouds at 1500 feet
     scattered clouds at 4000 feet
METAR: LEST 022130Z 34008KT 310V010 9999 SCT015 SCT040 09/07 Q1019 NOSIG

Google
{'current_conditions': ''}