Metar
station: LESA
type: routine report, cycle 13 (automatic report)
time: Tue May  4 13:30:00 2010
temperature: 10.0 C
dew point: -2.0 C
wind: NNW to NNE at 14 knots
visibility: greater than 10000 meters
pressure: 1016.0 mb
sky: broken clouds at 3000 feet
METAR: LESA 041330Z 36014KT 330V030 9999 BKN030 10/M02 Q1016

Google
{'current_conditions': ''}