Metar
station: LESA
type: routine report, cycle 3 (automatic report)
time: Sun May  2 03:00:00 2010
temperature: 9.0 C
dew point: 7.0 C
wind: SSW at 5 knots
visibility: 10000 meters
pressure: 1015.0 mb
METAR: LESA 020300Z 21005KT CAVOK 09/07 Q1015

Google
{'current_conditions': ''}