Metar
station: LESA
type: routine report, cycle 2 (automatic report)
time: Sun May  2 02:00:00 2010
temperature: 10.0 C
dew point: 7.0 C
wind: SW at 6 knots
visibility: 10000 meters
pressure: 1015.0 mb
METAR: LESA 020200Z 23006KT CAVOK 10/07 Q1015

Google
{'current_conditions': ''}