Metar
station: LESA
type: routine report (automatic report)
time: Tue May  4 00:00:00 2010
temperature: 2.0 C
dew point: -2.0 C
wind: NNE at 4 knots
visibility: 10000 meters
pressure: 1018.0 mb
METAR: LESA 040000Z 02004KT CAVOK 02/M02 Q1018

Google
{'current_conditions': ''}