Metar
station: LESA
type: routine report, cycle 14 (automatic report)
time: Sun May  2 14:30:00 2010
temperature: 19.0 C
dew point: 5.0 C
wind: variable at 7 knots
visibility: greater than 10000 meters
pressure: 1013.0 mb
sky: scattered clouds at 4800 feet
METAR: LESA 021430Z VRB07KT 9999 SCT048 19/05 Q1013

Google
{'current_conditions': ''}