Metar
station: LEAS
type: routine report, cycle 8 (automatic report)
time: Tue May  4 08:30:00 2010
temperature: 10.0 C
dew point: 5.0 C
wind: NNE to ESE at 13 knots
visibility: greater than 10000 meters
pressure: 1024.0 mb
sky: a few towering cumulus at 3300 feet
     scattered clouds at 4500 feet
METAR: LEAS 040830Z 05013KT 020V110 9999 FEW033TCU SCT045 10/05 Q1024 TEMPO SHRA

Google
{'current_conditions': ''}