Metar
station: LEAS
type: routine report, cycle 14 (automatic report)
time: Sun May  2 14:30:00 2010
temperature: 14.0 C
dew point: 9.0 C
wind: W to N at 9 knots
visibility: greater than 10000 meters
pressure: 1018.0 mb
sky: a few clouds at 2500 feet
     scattered clouds at 7000 feet
METAR: LEAS 021430Z 31009KT 270V350 9999 FEW025 SCT070 14/09 Q1018 TEMPO SHRA

Google
{'current_conditions': ''}