Metar
station: LEAS
type: routine report, cycle 11 (automatic report)
time: Sun May  2 11:30:00 2010
temperature: 13.0 C
dew point: 10.0 C
wind: WSW to NW at 6 knots
visibility: greater than 10000 meters
pressure: 1018.0 mb
sky: scattered clouds at 2000 feet
     broken clouds at 5000 feet
METAR: LEAS 021130Z 28006KT 250V310 9999 SCT020 BKN050 13/10 Q1018 TEMPO SHRA

Google
{'current_conditions': ''}