Metar
station: LEAS
type: routine report, cycle 20 (automatic report)
time: Mon May  3 20:30:00 2010
temperature: 8.0 C
dew point: 5.0 C
wind: variable at 7 knots, gusting to 18 knots
visibility: greater than 10000 meters
pressure: 1023.0 mb
sky: a few towering cumulus at 2000 feet
     scattered clouds at 3000 feet
METAR: LEAS 032030Z VRB07G18KT 9999 FEW020TCU SCT030 08/05 Q1023 TEMPO 4000 TSRA SCT020CB

Google
{'current_conditions': ''}